<gpx xmlns:ns3="http://www.garmin.com/xmlschemas/TrackPointExtension/v1" xmlns="http://www.topografix.com/GPX/1/1" xmlns:xsi="http://www.w3.org/2001/XMLSchema-instance" xmlns:ns2="http://www.garmin.com/xmlschemas/GpxExtensions/v3" creator="Garmin Connect" version="1.1" xsi:schemaLocation="http://www.topografix.com/GPX/1/1 http://www.topografix.com/GPX/11.xsd">
  <extensions>
<distance>65.67</distance>
<average_hr>85.0</average_hr>
<average_speed>0.02199999988079071</average_speed>
<start_time>2025-06-29T13:59:12+00:00</start_time>
<end_time>2025-06-29T14:48:57.217000+00:00</end_time>
<moving_time>131.0</moving_time>
<elapsed_time>2985.217</elapsed_time>
</extensions>
<metadata>
    <link href="connect.garmin.com">
      <text>Garmin Connect</text>
    </link>
    <time>2025-06-29T13:59:12.000Z</time>
  </metadata>
  <trk>
    <name>室内活动</name>
    <type>indoor_running</type>
    <trkseg/>
  </trk>
</gpx>
