<gpx xmlns:ns3="http://www.garmin.com/xmlschemas/TrackPointExtension/v1" xmlns="http://www.topografix.com/GPX/1/1" xmlns:xsi="http://www.w3.org/2001/XMLSchema-instance" xmlns:ns2="http://www.garmin.com/xmlschemas/GpxExtensions/v3" creator="Garmin Connect" version="1.1" xsi:schemaLocation="http://www.topografix.com/GPX/1/1 http://www.topografix.com/GPX/11.xsd">
  <extensions>
<distance>527.8</distance>
<average_hr>68.0</average_hr>
<average_speed>0.07400000095367432</average_speed>
<start_time>2025-10-11T14:28:57+00:00</start_time>
<end_time>2025-10-11T16:28:21.486000+00:00</end_time>
<moving_time>578.0</moving_time>
<elapsed_time>7164.486</elapsed_time>
</extensions>
<metadata>
    <link href="connect.garmin.com">
      <text>Garmin Connect</text>
    </link>
    <time>2025-10-11T14:28:57.000Z</time>
  </metadata>
  <trk>
    <name>室内活动</name>
    <type>indoor_running</type>
    <trkseg/>
  </trk>
</gpx>
