<gpx xmlns:ns3="http://www.garmin.com/xmlschemas/TrackPointExtension/v1" xmlns="http://www.topografix.com/GPX/1/1" xmlns:xsi="http://www.w3.org/2001/XMLSchema-instance" xmlns:ns2="http://www.garmin.com/xmlschemas/GpxExtensions/v3" creator="Garmin Connect" version="1.1" xsi:schemaLocation="http://www.topografix.com/GPX/1/1 http://www.topografix.com/GPX/11.xsd">
  <extensions>
<distance>830.14</distance>
<average_hr>76.0</average_hr>
<average_speed>0.23499999940395355</average_speed>
<start_time>2025-11-01T15:26:39+00:00</start_time>
<end_time>2025-11-01T16:25:26.839000+00:00</end_time>
<moving_time>611.0</moving_time>
<elapsed_time>3527.839</elapsed_time>
</extensions>
<metadata>
    <link href="connect.garmin.com">
      <text>Garmin Connect</text>
    </link>
    <time>2025-11-01T15:26:39.000Z</time>
  </metadata>
  <trk>
    <name>室内活动</name>
    <type>indoor_running</type>
    <trkseg/>
  </trk>
</gpx>
