<gpx xmlns:ns3="http://www.garmin.com/xmlschemas/TrackPointExtension/v1" xmlns="http://www.topografix.com/GPX/1/1" xmlns:xsi="http://www.w3.org/2001/XMLSchema-instance" xmlns:ns2="http://www.garmin.com/xmlschemas/GpxExtensions/v3" creator="Garmin Connect" version="1.1" xsi:schemaLocation="http://www.topografix.com/GPX/1/1 http://www.topografix.com/GPX/11.xsd">
  <extensions>
<distance>672.17</distance>
<average_hr>121.0</average_hr>
<average_speed>0.09300000220537186</average_speed>
<start_time>2025-12-09T06:37:57+00:00</start_time>
<end_time>2025-12-09T08:38:27.422000+00:00</end_time>
<moving_time>851.0</moving_time>
<elapsed_time>13710.276</elapsed_time>
</extensions>
<metadata>
    <link href="connect.garmin.com">
      <text>Garmin Connect</text>
    </link>
    <time>2025-12-09T06:37:57.000Z</time>
  </metadata>
  <trk>
    <name>雪板滑雪</name>
    <type>resort_snowboarding</type>
    <trkseg/>
  </trk>
</gpx>
