<gpx xmlns:ns3="http://www.garmin.com/xmlschemas/TrackPointExtension/v1" xmlns="http://www.topografix.com/GPX/1/1" xmlns:xsi="http://www.w3.org/2001/XMLSchema-instance" xmlns:ns2="http://www.garmin.com/xmlschemas/GpxExtensions/v3" creator="Garmin Connect" version="1.1" xsi:schemaLocation="http://www.topografix.com/GPX/1/1 http://www.topografix.com/GPX/11.xsd">
  <extensions>
<distance>2600.04</distance>
<average_hr>107.0</average_hr>
<average_speed>0.15299999713897705</average_speed>
<start_time>2025-12-29T04:04:51+00:00</start_time>
<end_time>2025-12-29T08:48:15.377000+00:00</end_time>
<moving_time>3480.0</moving_time>
<elapsed_time>29087.15</elapsed_time>
</extensions>
<metadata>
    <link href="connect.garmin.com">
      <text>Garmin Connect</text>
    </link>
    <time>2025-12-29T04:04:51.000Z</time>
  </metadata>
  <trk>
    <name>雪板滑雪</name>
    <type>resort_snowboarding</type>
    <trkseg/>
  </trk>
</gpx>
