<gpx xmlns:ns3="http://www.garmin.com/xmlschemas/TrackPointExtension/v1" xmlns="http://www.topografix.com/GPX/1/1" xmlns:xsi="http://www.w3.org/2001/XMLSchema-instance" xmlns:ns2="http://www.garmin.com/xmlschemas/GpxExtensions/v3" creator="Garmin Connect" version="1.1" xsi:schemaLocation="http://www.topografix.com/GPX/1/1 http://www.topografix.com/GPX/11.xsd">
  <extensions>
<distance>983.8</distance>
<average_hr>101.0</average_hr>
<average_speed>0.25999999046325684</average_speed>
<start_time>2026-03-30T00:43:42+00:00</start_time>
<end_time>2026-03-30T01:46:49.571000+00:00</end_time>
<moving_time>683.0</moving_time>
<elapsed_time>3787.571</elapsed_time>
</extensions>
<metadata>
    <link href="connect.garmin.com">
      <text>Garmin Connect</text>
    </link>
    <time>2026-03-30T00:43:42.000Z</time>
  </metadata>
  <trk>
    <name>闵行区 Commuting</name>
    <type>other</type>
    <trkseg>
      <trkpt lat="31.1030464433133602142333984375" lon="121.41104274429380893707275390625">
        <ele>8.6000003814697265625</ele>
        <time>2026-03-30T00:44:14.000Z</time>
        <extensions>
          <ns3:TrackPointExtension>
            <ns3:atemp>27.0</ns3:atemp>
            <ns3:hr>93</ns3:hr>
          </ns3:TrackPointExtension>
        </extensions>
      </trkpt>
      <trkpt lat="31.10294845886528491973876953125" lon="121.41108079813420772552490234375">
        <ele>8.3999996185302734375</ele>
        <time>2026-03-30T00:44:21.000Z</time>
        <extensions>
          <ns3:TrackPointExtension>
            <ns3:atemp>27.0</ns3:atemp>
            <ns3:hr>92</ns3:hr>
          </ns3:TrackPointExtension>
        </extensions>
      </trkpt>
      <trkpt lat="31.10293907113373279571533203125" lon="121.4111004956066608428955078125">
        <ele>8.3999996185302734375</ele>
        <time>2026-03-30T00:44:23.000Z</time>
        <extensions>
          <ns3:TrackPointExtension>
            <ns3:atemp>27.0</ns3:atemp>
            <ns3:hr>93</ns3:hr>
          </ns3:TrackPointExtension>
        </extensions>
      </trkpt>
      <trkpt lat="31.10291727818548679351806640625" lon="121.411188505589962005615234375">
        <ele>8.3999996185302734375</ele>
        <time>2026-03-30T00:44:28.000Z</time>
        <extensions>
          <ns3:TrackPointExtension>
            <ns3:atemp>27.0</ns3:atemp>
            <ns3:hr>91</ns3:hr>
          </ns3:TrackPointExtension>
        </extensions>
      </trkpt>
      <trkpt lat="31.10285826958715915679931640625" lon="121.41123401932418346405029296875">
        <ele>8.19999980926513671875</ele>
        <time>2026-03-30T00:44:31.000Z</time>
        <extensions>
          <ns3:TrackPointExtension>
            <ns3:atemp>27.0</ns3:atemp>
            <ns3:hr>88</ns3:hr>
          </ns3:TrackPointExtension>
        </extensions>
      </trkpt>
      <trkpt lat="31.10270865261554718017578125" lon="121.41122865490615367889404296875">
        <ele>8.19999980926513671875</ele>
        <time>2026-03-30T00:44:34.000Z</time>
        <extensions>
          <ns3:TrackPointExtension>
            <ns3:atemp>27.0</ns3:atemp>
            <ns3:hr>85</ns3:hr>
          </ns3:TrackPointExtension>
        </extensions>
      </trkpt>
      <trkpt lat="31.1026380769908428192138671875" lon="121.41121943481266498565673828125">
        <ele>8.19999980926513671875</ele>
        <time>2026-03-30T00:44:37.000Z</time>
        <extensions>
          <ns3:TrackPointExtension>
            <ns3:atemp>27.0</ns3:atemp>
            <ns3:hr>83</ns3:hr>
          </ns3:TrackPointExtension>
        </extensions>
      </trkpt>
      <trkpt lat="31.1025374941527843475341796875" lon="121.4112279005348682403564453125">
        <ele>8</ele>
        <time>2026-03-30T00:44:43.000Z</time>
        <extensions>
          <ns3:TrackPointExtension>
            <ns3:atemp>27.0</ns3:atemp>
            <ns3:hr>86</ns3:hr>
          </ns3:TrackPointExtension>
        </extensions>
      </trkpt>
      <trkpt lat="31.10251897014677524566650390625" lon="121.4112317562103271484375">
        <ele>8</ele>
        <time>2026-03-30T00:44:44.000Z</time>
        <extensions>
          <ns3:TrackPointExtension>
            <ns3:atemp>27.0</ns3:atemp>
            <ns3:hr>84</ns3:hr>
          </ns3:TrackPointExtension>
        </extensions>
      </trkpt>
      <trkpt lat="31.102500446140766143798828125" lon="121.41123837791383266448974609375">
        <ele>8</ele>
        <time>2026-03-30T00:44:45.000Z</time>
        <extensions>
          <ns3:TrackPointExtension>
            <ns3:atemp>27.0</ns3:atemp>
            <ns3:hr>86</ns3:hr>
          </ns3:TrackPointExtension>
        </extensions>
      </trkpt>
      <trkpt lat="31.10244403593242168426513671875" lon="121.411244831979274749755859375">
        <ele>8</ele>
        <time>2026-03-30T00:44:48.000Z</time>
        <extensions>
          <ns3:TrackPointExtension>
            <ns3:atemp>27.0</ns3:atemp>
            <ns3:hr>90</ns3:hr>
          </ns3:TrackPointExtension>
        </extensions>
      </trkpt>
      <trkpt lat="31.102411933243274688720703125" lon="121.411248184740543365478515625">
        <ele>8.19999980926513671875</ele>
        <time>2026-03-30T00:44:50.000Z</time>
        <extensions>
          <ns3:TrackPointExtension>
            <ns3:atemp>27.0</ns3:atemp>
            <ns3:hr>94</ns3:hr>
          </ns3:TrackPointExtension>
        </extensions>
      </trkpt>
      <trkpt lat="31.10230657272040843963623046875" lon="121.41126520000398159027099609375">
        <ele>8</ele>
        <time>2026-03-30T00:44:57.000Z</time>
        <extensions>
          <ns3:TrackPointExtension>
            <ns3:atemp>26.0</ns3:atemp>
            <ns3:hr>99</ns3:hr>
          </ns3:TrackPointExtension>
        </extensions>
      </trkpt>
      <trkpt lat="31.10227371565997600555419921875" lon="121.41127324663102626800537109375">
        <ele>8</ele>
        <time>2026-03-30T00:44:59.000Z</time>
        <extensions>
          <ns3:TrackPointExtension>
            <ns3:atemp>26.0</ns3:atemp>
            <ns3:hr>97</ns3:hr>
          </ns3:TrackPointExtension>
        </extensions>
      </trkpt>
      <trkpt lat="31.1021981947124004364013671875" lon="121.411270983517169952392578125">
        <ele>8</ele>
        <time>2026-03-30T00:45:04.000Z</time>
        <extensions>
          <ns3:TrackPointExtension>
            <ns3:atemp>26.0</ns3:atemp>
            <ns3:hr>98</ns3:hr>
          </ns3:TrackPointExtension>
        </extensions>
      </trkpt>
      <trkpt lat="31.10217061825096607208251953125" lon="121.41126771457493305206298828125">
        <ele>8</ele>
        <time>2026-03-30T00:45:06.000Z</time>
        <extensions>
          <ns3:TrackPointExtension>
            <ns3:atemp>26.0</ns3:atemp>
            <ns3:hr>99</ns3:hr>
          </ns3:TrackPointExtension>
        </extensions>
      </trkpt>
      <trkpt lat="31.10206182114779949188232421875" lon="121.4113023318350315093994140625">
        <ele>8</ele>
        <time>2026-03-30T00:45:14.000Z</time>
        <extensions>
          <ns3:TrackPointExtension>
            <ns3:atemp>26.0</ns3:atemp>
            <ns3:hr>98</ns3:hr>
          </ns3:TrackPointExtension>
        </extensions>
      </trkpt>
      <trkpt lat="31.10196660272777080535888671875" lon="121.4113271422684192657470703125">
        <ele>8</ele>
        <time>2026-03-30T00:45:21.000Z</time>
        <extensions>
          <ns3:TrackPointExtension>
            <ns3:atemp>26.0</ns3:atemp>
            <ns3:hr>99</ns3:hr>
          </ns3:TrackPointExtension>
        </extensions>
      </trkpt>
      <trkpt lat="31.10183249227702617645263671875" lon="121.4113645255565643310546875">
        <ele>8</ele>
        <time>2026-03-30T00:45:31.000Z</time>
        <extensions>
          <ns3:TrackPointExtension>
            <ns3:atemp>26.0</ns3:atemp>
            <ns3:hr>96</ns3:hr>
          </ns3:TrackPointExtension>
        </extensions>
      </trkpt>
      <trkpt lat="31.10181908123195171356201171875" lon="121.41136586666107177734375">
        <ele>8</ele>
        <time>2026-03-30T00:45:32.000Z</time>
        <extensions>
          <ns3:TrackPointExtension>
            <ns3:atemp>26.0</ns3:atemp>
            <ns3:hr>100</ns3:hr>
          </ns3:TrackPointExtension>
        </extensions>
      </trkpt>
      <trkpt lat="31.101734004914760589599609375" lon="121.41139361076056957244873046875">
        <ele>8</ele>
        <time>2026-03-30T00:45:38.000Z</time>
        <extensions>
          <ns3:TrackPointExtension>
            <ns3:atemp>26.0</ns3:atemp>
            <ns3:hr>99</ns3:hr>
          </ns3:TrackPointExtension>
        </extensions>
      </trkpt>
      <trkpt lat="31.1016919277608394622802734375" lon="121.41139629296958446502685546875">
        <ele>8</ele>
        <time>2026-03-30T00:45:41.000Z</time>
        <extensions>
          <ns3:TrackPointExtension>
            <ns3:atemp>26.0</ns3:atemp>
            <ns3:hr>98</ns3:hr>
          </ns3:TrackPointExtension>
        </extensions>
      </trkpt>
      <trkpt lat="31.101594530045986175537109375" lon="121.411414481699466705322265625">
        <ele>7.80000019073486328125</ele>
        <time>2026-03-30T00:45:50.000Z</time>
        <extensions>
          <ns3:TrackPointExtension>
            <ns3:atemp>26.0</ns3:atemp>
            <ns3:hr>99</ns3:hr>
          </ns3:TrackPointExtension>
        </extensions>
      </trkpt>
      <trkpt lat="31.10147860832512378692626953125" lon="121.4114535413682460784912109375">
        <ele>7.599999904632568359375</ele>
        <time>2026-03-30T00:45:59.000Z</time>
        <extensions>
          <ns3:TrackPointExtension>
            <ns3:atemp>26.0</ns3:atemp>
            <ns3:hr>100</ns3:hr>
          </ns3:TrackPointExtension>
        </extensions>
      </trkpt>
      <trkpt lat="31.1014532111585140228271484375" lon="121.41146418638527393341064453125">
        <ele>7.599999904632568359375</ele>
        <time>2026-03-30T00:46:01.000Z</time>
        <extensions>
          <ns3:TrackPointExtension>
            <ns3:atemp>26.0</ns3:atemp>
            <ns3:hr>98</ns3:hr>
          </ns3:TrackPointExtension>
        </extensions>
      </trkpt>
      <trkpt lat="31.1014384590089321136474609375" lon="121.4114718139171600341796875">
        <ele>7.599999904632568359375</ele>
        <time>2026-03-30T00:46:02.000Z</time>
        <extensions>
          <ns3:TrackPointExtension>
            <ns3:atemp>25.0</ns3:atemp>
            <ns3:hr>99</ns3:hr>
          </ns3:TrackPointExtension>
        </extensions>
      </trkpt>
      <trkpt lat="31.10137852840125560760498046875" lon="121.41150475479662418365478515625">
        <ele>7.19999980926513671875</ele>
        <time>2026-03-30T00:46:06.000Z</time>
        <extensions>
          <ns3:TrackPointExtension>
            <ns3:atemp>25.0</ns3:atemp>
            <ns3:hr>98</ns3:hr>
          </ns3:TrackPointExtension>
        </extensions>
      </trkpt>
      <trkpt lat="31.101350449025630950927734375" lon="121.41151380725204944610595703125">
        <ele>7.19999980926513671875</ele>
        <time>2026-03-30T00:46:08.000Z</time>
        <extensions>
          <ns3:TrackPointExtension>
            <ns3:atemp>25.0</ns3:atemp>
            <ns3:hr>97</ns3:hr>
          </ns3:TrackPointExtension>
        </extensions>
      </trkpt>
      <trkpt lat="31.10128230415284633636474609375" lon="121.41153761185705661773681640625">
        <ele>7.19999980926513671875</ele>
        <time>2026-03-30T00:46:13.000Z</time>
        <extensions>
          <ns3:TrackPointExtension>
            <ns3:atemp>25.0</ns3:atemp>
            <ns3:hr>100</ns3:hr>
          </ns3:TrackPointExtension>
        </extensions>
      </trkpt>
      <trkpt lat="31.1012460105121135711669921875" lon="121.411544568836688995361328125">
        <ele>7.19999980926513671875</ele>
        <time>2026-03-30T00:46:16.000Z</time>
        <extensions>
          <ns3:TrackPointExtension>
            <ns3:atemp>25.0</ns3:atemp>
            <ns3:hr>98</ns3:hr>
          </ns3:TrackPointExtension>
        </extensions>
      </trkpt>
      <trkpt lat="31.10118172131478786468505859375" lon="121.41156175173819065093994140625">
        <ele>7.19999980926513671875</ele>
        <time>2026-03-30T00:46:22.000Z</time>
        <extensions>
          <ns3:TrackPointExtension>
            <ns3:atemp>25.0</ns3:atemp>
            <ns3:hr>95</ns3:hr>
          </ns3:TrackPointExtension>
        </extensions>
      </trkpt>
      <trkpt lat="31.101172082126140594482421875" lon="121.4115631766617298126220703125">
        <ele>7.19999980926513671875</ele>
        <time>2026-03-30T00:46:23.000Z</time>
        <extensions>
          <ns3:TrackPointExtension>
            <ns3:atemp>25.0</ns3:atemp>
            <ns3:hr>98</ns3:hr>
          </ns3:TrackPointExtension>
        </extensions>
      </trkpt>
      <trkpt lat="31.10113997943699359893798828125" lon="121.41158119775354862213134765625">
        <ele>7.19999980926513671875</ele>
        <time>2026-03-30T00:46:26.000Z</time>
        <extensions>
          <ns3:TrackPointExtension>
            <ns3:atemp>25.0</ns3:atemp>
            <ns3:hr>97</ns3:hr>
          </ns3:TrackPointExtension>
        </extensions>
      </trkpt>
      <trkpt lat="31.10113394446671009063720703125" lon="121.4116583950817584991455078125">
        <ele>7.400000095367431640625</ele>
        <time>2026-03-30T00:46:32.000Z</time>
        <extensions>
          <ns3:TrackPointExtension>
            <ns3:atemp>25.0</ns3:atemp>
            <ns3:hr>100</ns3:hr>
          </ns3:TrackPointExtension>
        </extensions>
      </trkpt>
      <trkpt lat="31.1011377163231372833251953125" lon="121.411668956279754638671875">
        <ele>7.400000095367431640625</ele>
        <time>2026-03-30T00:46:33.000Z</time>
        <extensions>
          <ns3:TrackPointExtension>
            <ns3:atemp>25.0</ns3:atemp>
            <ns3:hr>97</ns3:hr>
          </ns3:TrackPointExtension>
        </extensions>
      </trkpt>
      <trkpt lat="31.10116646625101566314697265625" lon="121.41180231235921382904052734375">
        <ele>7.599999904632568359375</ele>
        <time>2026-03-30T00:46:43.000Z</time>
        <extensions>
          <ns3:TrackPointExtension>
            <ns3:atemp>26.0</ns3:atemp>
            <ns3:hr>99</ns3:hr>
          </ns3:TrackPointExtension>
        </extensions>
      </trkpt>
      <trkpt lat="31.10119186341762542724609375" lon="121.411875151097774505615234375">
        <ele>7.599999904632568359375</ele>
        <time>2026-03-30T00:46:50.000Z</time>
        <extensions>
          <ns3:TrackPointExtension>
            <ns3:atemp>26.0</ns3:atemp>
            <ns3:hr>100</ns3:hr>
          </ns3:TrackPointExtension>
        </extensions>
      </trkpt>
      <trkpt lat="31.1012181825935840606689453125" lon="121.41198336146771907806396484375">
        <ele>7.80000019073486328125</ele>
        <time>2026-03-30T00:46:57.000Z</time>
        <extensions>
          <ns3:TrackPointExtension>
            <ns3:atemp>26.0</ns3:atemp>
            <ns3:hr>102</ns3:hr>
          </ns3:TrackPointExtension>
        </extensions>
      </trkpt>
      <trkpt lat="31.10126587562263011932373046875" lon="121.412133313715457916259765625">
        <ele>7.80000019073486328125</ele>
        <time>2026-03-30T00:47:06.000Z</time>
        <extensions>
          <ns3:TrackPointExtension>
            <ns3:atemp>26.0</ns3:atemp>
            <ns3:hr>104</ns3:hr>
          </ns3:TrackPointExtension>
        </extensions>
      </trkpt>
      <trkpt lat="31.1013103835284709930419921875" lon="121.41229382716119289398193359375">
        <ele>7.599999904632568359375</ele>
        <time>2026-03-30T00:47:17.000Z</time>
        <extensions>
          <ns3:TrackPointExtension>
            <ns3:atemp>26.0</ns3:atemp>
            <ns3:hr>105</ns3:hr>
          </ns3:TrackPointExtension>
        </extensions>
      </trkpt>
      <trkpt lat="31.10133695416152477264404296875" lon="121.41240798868238925933837890625">
        <ele>7.80000019073486328125</ele>
        <time>2026-03-30T00:47:25.000Z</time>
        <extensions>
          <ns3:TrackPointExtension>
            <ns3:atemp>25.0</ns3:atemp>
            <ns3:hr>107</ns3:hr>
          </ns3:TrackPointExtension>
        </extensions>
      </trkpt>
      <trkpt lat="31.101364195346832275390625" lon="121.4125431887805461883544921875">
        <ele>7.80000019073486328125</ele>
        <time>2026-03-30T00:47:33.000Z</time>
        <extensions>
          <ns3:TrackPointExtension>
            <ns3:atemp>26.0</ns3:atemp>
            <ns3:hr>108</ns3:hr>
          </ns3:TrackPointExtension>
        </extensions>
      </trkpt>
      <trkpt lat="31.10140107572078704833984375" lon="121.41267486847937107086181640625">
        <ele>7.599999904632568359375</ele>
        <time>2026-03-30T00:47:41.000Z</time>
        <extensions>
          <ns3:TrackPointExtension>
            <ns3:atemp>25.0</ns3:atemp>
            <ns3:hr>108</ns3:hr>
          </ns3:TrackPointExtension>
        </extensions>
      </trkpt>
      <trkpt lat="31.1014327593147754669189453125" lon="121.41269766725599765777587890625">
        <ele>7.599999904632568359375</ele>
        <time>2026-03-30T00:47:46.000Z</time>
        <extensions>
          <ns3:TrackPointExtension>
            <ns3:atemp>25.0</ns3:atemp>
            <ns3:hr>105</ns3:hr>
          </ns3:TrackPointExtension>
        </extensions>
      </trkpt>
      <trkpt lat="31.10143468715250492095947265625" lon="121.412697918713092803955078125">
        <ele>7.599999904632568359375</ele>
        <time>2026-03-30T00:47:48.000Z</time>
        <extensions>
          <ns3:TrackPointExtension>
            <ns3:atemp>25.0</ns3:atemp>
            <ns3:hr>105</ns3:hr>
          </ns3:TrackPointExtension>
        </extensions>
      </trkpt>
      <trkpt lat="31.1014371179044246673583984375" lon="121.412697248160839080810546875">
        <ele>7.599999904632568359375</ele>
        <time>2026-03-30T00:48:19.000Z</time>
        <extensions>
          <ns3:TrackPointExtension>
            <ns3:atemp>26.0</ns3:atemp>
            <ns3:hr>102</ns3:hr>
          </ns3:TrackPointExtension>
        </extensions>
      </trkpt>
      <trkpt lat="31.1014513671398162841796875" lon="121.4127242378890514373779296875">
        <ele>7.400000095367431640625</ele>
        <time>2026-03-30T00:48:21.000Z</time>
        <extensions>
          <ns3:TrackPointExtension>
            <ns3:atemp>26.0</ns3:atemp>
            <ns3:hr>101</ns3:hr>
          </ns3:TrackPointExtension>
        </extensions>
      </trkpt>
      <trkpt lat="31.10146033577620983123779296875" lon="121.412743516266345977783203125">
        <ele>7.400000095367431640625</ele>
        <time>2026-03-30T00:48:22.000Z</time>
        <extensions>
          <ns3:TrackPointExtension>
            <ns3:atemp>26.0</ns3:atemp>
            <ns3:hr>104</ns3:hr>
          </ns3:TrackPointExtension>
        </extensions>
      </trkpt>
      <trkpt lat="31.10146955586969852447509765625" lon="121.41276069916784763336181640625">
        <ele>7.400000095367431640625</ele>
        <time>2026-03-30T00:48:23.000Z</time>
        <extensions>
          <ns3:TrackPointExtension>
            <ns3:atemp>26.0</ns3:atemp>
            <ns3:hr>100</ns3:hr>
          </ns3:TrackPointExtension>
        </extensions>
      </trkpt>
      <trkpt lat="31.10147953033447265625" lon="121.4127788878977298736572265625">
        <ele>7.599999904632568359375</ele>
        <time>2026-03-30T00:48:24.000Z</time>
        <extensions>
          <ns3:TrackPointExtension>
            <ns3:atemp>26.0</ns3:atemp>
            <ns3:hr>100</ns3:hr>
          </ns3:TrackPointExtension>
        </extensions>
      </trkpt>
      <trkpt lat="31.1015269719064235687255859375" lon="121.41287201084196567535400390625">
        <ele>7.400000095367431640625</ele>
        <time>2026-03-30T00:48:29.000Z</time>
        <extensions>
          <ns3:TrackPointExtension>
            <ns3:atemp>26.0</ns3:atemp>
            <ns3:hr>99</ns3:hr>
          </ns3:TrackPointExtension>
        </extensions>
      </trkpt>
      <trkpt lat="31.101563014090061187744140625" lon="121.4129738509654998779296875">
        <ele>7.599999904632568359375</ele>
        <time>2026-03-30T00:48:36.000Z</time>
        <extensions>
          <ns3:TrackPointExtension>
            <ns3:atemp>26.0</ns3:atemp>
            <ns3:hr>99</ns3:hr>
          </ns3:TrackPointExtension>
        </extensions>
      </trkpt>
      <trkpt lat="31.10157265327870845794677734375" lon="121.41301601193845272064208984375">
        <ele>7.599999904632568359375</ele>
        <time>2026-03-30T00:48:39.000Z</time>
        <extensions>
          <ns3:TrackPointExtension>
            <ns3:atemp>26.0</ns3:atemp>
            <ns3:hr>96</ns3:hr>
          </ns3:TrackPointExtension>
        </extensions>
      </trkpt>
      <trkpt lat="31.10158338211476802825927734375" lon="121.41305071301758289337158203125">
        <ele>7.599999904632568359375</ele>
        <time>2026-03-30T00:48:43.000Z</time>
        <extensions>
          <ns3:TrackPointExtension>
            <ns3:atemp>25.0</ns3:atemp>
            <ns3:hr>93</ns3:hr>
          </ns3:TrackPointExtension>
        </extensions>
      </trkpt>
      <trkpt lat="31.10158774070441722869873046875" lon="121.41305892728269100189208984375">
        <ele>7.400000095367431640625</ele>
        <time>2026-03-30T00:48:44.000Z</time>
        <extensions>
          <ns3:TrackPointExtension>
            <ns3:atemp>25.0</ns3:atemp>
            <ns3:hr>93</ns3:hr>
          </ns3:TrackPointExtension>
        </extensions>
      </trkpt>
      <trkpt lat="31.10163870267570018768310546875" lon="121.413086168467998504638671875">
        <ele>7.400000095367431640625</ele>
        <time>2026-03-30T00:48:48.000Z</time>
        <extensions>
          <ns3:TrackPointExtension>
            <ns3:atemp>25.0</ns3:atemp>
            <ns3:hr>90</ns3:hr>
          </ns3:TrackPointExtension>
        </extensions>
      </trkpt>
      <trkpt lat="31.101664602756500244140625" lon="121.41308910213410854339599609375">
        <ele>7.400000095367431640625</ele>
        <time>2026-03-30T00:48:51.000Z</time>
        <extensions>
          <ns3:TrackPointExtension>
            <ns3:atemp>25.0</ns3:atemp>
            <ns3:hr>89</ns3:hr>
          </ns3:TrackPointExtension>
        </extensions>
      </trkpt>
      <trkpt lat="31.1016627587378025054931640625" lon="121.4130987413227558135986328125">
        <ele>7.80000019073486328125</ele>
        <time>2026-03-30T00:48:52.000Z</time>
        <extensions>
          <ns3:TrackPointExtension>
            <ns3:atemp>25.0</ns3:atemp>
            <ns3:hr>90</ns3:hr>
          </ns3:TrackPointExtension>
        </extensions>
      </trkpt>
      <trkpt lat="31.10166393220424652099609375" lon="121.4131322689354419708251953125">
        <ele>7.80000019073486328125</ele>
        <time>2026-03-30T00:48:54.000Z</time>
        <extensions>
          <ns3:TrackPointExtension>
            <ns3:atemp>25.0</ns3:atemp>
            <ns3:hr>90</ns3:hr>
          </ns3:TrackPointExtension>
        </extensions>
      </trkpt>
      <trkpt lat="31.10166016034781932830810546875" lon="121.41316319815814495086669921875">
        <ele>7.80000019073486328125</ele>
        <time>2026-03-30T00:48:56.000Z</time>
        <extensions>
          <ns3:TrackPointExtension>
            <ns3:atemp>25.0</ns3:atemp>
            <ns3:hr>93</ns3:hr>
          </ns3:TrackPointExtension>
        </extensions>
      </trkpt>
      <trkpt lat="31.10165932215750217437744140625" lon="121.4131728373467922210693359375">
        <ele>7.80000019073486328125</ele>
        <time>2026-03-30T00:48:57.000Z</time>
        <extensions>
          <ns3:TrackPointExtension>
            <ns3:atemp>25.0</ns3:atemp>
            <ns3:hr>94</ns3:hr>
          </ns3:TrackPointExtension>
        </extensions>
      </trkpt>
      <trkpt lat="31.1016647703945636749267578125" lon="121.4132030121982097625732421875">
        <ele>7.19999980926513671875</ele>
        <time>2026-03-30T00:49:00.000Z</time>
        <extensions>
          <ns3:TrackPointExtension>
            <ns3:atemp>25.0</ns3:atemp>
            <ns3:hr>91</ns3:hr>
          </ns3:TrackPointExtension>
        </extensions>
      </trkpt>
      <trkpt lat="31.10166393220424652099609375" lon="121.41320443712174892425537109375">
        <ele>6.400000095367431640625</ele>
        <time>2026-03-30T00:49:01.000Z</time>
        <extensions>
          <ns3:TrackPointExtension>
            <ns3:atemp>25.0</ns3:atemp>
            <ns3:hr>92</ns3:hr>
          </ns3:TrackPointExtension>
        </extensions>
      </trkpt>
      <trkpt lat="31.10165429301559925079345703125" lon="121.413195468485355377197265625">
        <ele>5</ele>
        <time>2026-03-30T00:49:03.000Z</time>
        <extensions>
          <ns3:TrackPointExtension>
            <ns3:atemp>25.0</ns3:atemp>
            <ns3:hr>92</ns3:hr>
          </ns3:TrackPointExtension>
        </extensions>
      </trkpt>
      <trkpt lat="31.15531406365334987640380859375" lon="121.47531174123287200927734375">
        <ele>5.400000095367431640625</ele>
        <time>2026-03-30T01:35:02.000Z</time>
        <extensions>
          <ns3:TrackPointExtension>
            <ns3:atemp>29.0</ns3:atemp>
            <ns3:hr>128</ns3:hr>
          </ns3:TrackPointExtension>
        </extensions>
      </trkpt>
      <trkpt lat="31.15536737255752086639404296875" lon="121.4752284251153469085693359375">
        <ele>5.400000095367431640625</ele>
        <time>2026-03-30T01:35:04.000Z</time>
        <extensions>
          <ns3:TrackPointExtension>
            <ns3:atemp>29.0</ns3:atemp>
            <ns3:hr>128</ns3:hr>
          </ns3:TrackPointExtension>
        </extensions>
      </trkpt>
      <trkpt lat="31.155500896275043487548828125" lon="121.475286595523357391357421875">
        <ele>5.599999904632568359375</ele>
        <time>2026-03-30T01:35:12.000Z</time>
        <extensions>
          <ns3:TrackPointExtension>
            <ns3:atemp>29.0</ns3:atemp>
            <ns3:hr>126</ns3:hr>
          </ns3:TrackPointExtension>
        </extensions>
      </trkpt>
      <trkpt lat="31.155520342290401458740234375" lon="121.47526153363287448883056640625">
        <ele>7</ele>
        <time>2026-03-30T01:35:17.000Z</time>
        <extensions>
          <ns3:TrackPointExtension>
            <ns3:atemp>29.0</ns3:atemp>
            <ns3:hr>126</ns3:hr>
          </ns3:TrackPointExtension>
        </extensions>
      </trkpt>
      <trkpt lat="31.15553132258355617523193359375" lon="121.475234292447566986083984375">
        <ele>8.3999996185302734375</ele>
        <time>2026-03-30T01:35:21.000Z</time>
        <extensions>
          <ns3:TrackPointExtension>
            <ns3:atemp>29.0</ns3:atemp>
            <ns3:hr>125</ns3:hr>
          </ns3:TrackPointExtension>
        </extensions>
      </trkpt>
      <trkpt lat="31.15553677082061767578125" lon="121.4752210490405559539794921875">
        <ele>9.19999980926513671875</ele>
        <time>2026-03-30T01:35:24.000Z</time>
        <extensions>
          <ns3:TrackPointExtension>
            <ns3:atemp>29.0</ns3:atemp>
            <ns3:hr>122</ns3:hr>
          </ns3:TrackPointExtension>
        </extensions>
      </trkpt>
      <trkpt lat="31.15553953684866428375244140625" lon="121.475214846432209014892578125">
        <ele>9.3999996185302734375</ele>
        <time>2026-03-30T01:35:25.000Z</time>
        <extensions>
          <ns3:TrackPointExtension>
            <ns3:atemp>29.0</ns3:atemp>
            <ns3:hr>121</ns3:hr>
          </ns3:TrackPointExtension>
        </extensions>
      </trkpt>
      <trkpt lat="31.1555423028767108917236328125" lon="121.47520135156810283660888671875">
        <ele>10</ele>
        <time>2026-03-30T01:35:27.000Z</time>
        <extensions>
          <ns3:TrackPointExtension>
            <ns3:atemp>29.0</ns3:atemp>
            <ns3:hr>119</ns3:hr>
          </ns3:TrackPointExtension>
        </extensions>
      </trkpt>
      <trkpt lat="31.155543811619281768798828125" lon="121.47518492303788661956787109375">
        <ele>10.6000003814697265625</ele>
        <time>2026-03-30T01:35:29.000Z</time>
        <extensions>
          <ns3:TrackPointExtension>
            <ns3:atemp>29.0</ns3:atemp>
            <ns3:hr>118</ns3:hr>
          </ns3:TrackPointExtension>
        </extensions>
      </trkpt>
      <trkpt lat="31.15554808638989925384521484375" lon="121.47513748146593570709228515625">
        <ele>12</ele>
        <time>2026-03-30T01:35:33.000Z</time>
        <extensions>
          <ns3:TrackPointExtension>
            <ns3:atemp>29.0</ns3:atemp>
            <ns3:hr>118</ns3:hr>
          </ns3:TrackPointExtension>
        </extensions>
      </trkpt>
      <trkpt lat="31.1555644311010837554931640625" lon="121.47508316673338413238525390625">
        <ele>12.19999980926513671875</ele>
        <time>2026-03-30T01:35:36.000Z</time>
        <extensions>
          <ns3:TrackPointExtension>
            <ns3:atemp>29.0</ns3:atemp>
            <ns3:hr>118</ns3:hr>
          </ns3:TrackPointExtension>
        </extensions>
      </trkpt>
      <trkpt lat="31.15563936531543731689453125" lon="121.47494637407362461090087890625">
        <ele>11.80000019073486328125</ele>
        <time>2026-03-30T01:35:47.000Z</time>
        <extensions>
          <ns3:TrackPointExtension>
            <ns3:atemp>29.0</ns3:atemp>
            <ns3:hr>120</ns3:hr>
          </ns3:TrackPointExtension>
        </extensions>
      </trkpt>
      <trkpt lat="31.1556790955364704132080078125" lon="121.47486104629933834075927734375">
        <ele>11.6000003814697265625</ele>
        <time>2026-03-30T01:35:53.000Z</time>
        <extensions>
          <ns3:TrackPointExtension>
            <ns3:atemp>29.0</ns3:atemp>
            <ns3:hr>124</ns3:hr>
          </ns3:TrackPointExtension>
        </extensions>
      </trkpt>
      <trkpt lat="31.15571287460625171661376953125" lon="121.47481142543256282806396484375">
        <ele>11.3999996185302734375</ele>
        <time>2026-03-30T01:35:57.000Z</time>
        <extensions>
          <ns3:TrackPointExtension>
            <ns3:atemp>29.0</ns3:atemp>
            <ns3:hr>123</ns3:hr>
          </ns3:TrackPointExtension>
        </extensions>
      </trkpt>
      <trkpt lat="31.155811361968517303466796875" lon="121.474691815674304962158203125">
        <ele>11.19999980926513671875</ele>
        <time>2026-03-30T01:36:07.000Z</time>
        <extensions>
          <ns3:TrackPointExtension>
            <ns3:atemp>29.0</ns3:atemp>
            <ns3:hr>124</ns3:hr>
          </ns3:TrackPointExtension>
        </extensions>
      </trkpt>
      <trkpt lat="31.1558494158089160919189453125" lon="121.4745927415788173675537109375">
        <ele>11.19999980926513671875</ele>
        <time>2026-03-30T01:36:14.000Z</time>
        <extensions>
          <ns3:TrackPointExtension>
            <ns3:atemp>29.0</ns3:atemp>
            <ns3:hr>125</ns3:hr>
          </ns3:TrackPointExtension>
        </extensions>
      </trkpt>
      <trkpt lat="31.15585603751242160797119140625" lon="121.47457891143858432769775390625">
        <ele>11.19999980926513671875</ele>
        <time>2026-03-30T01:36:15.000Z</time>
        <extensions>
          <ns3:TrackPointExtension>
            <ns3:atemp>29.0</ns3:atemp>
            <ns3:hr>122</ns3:hr>
          </ns3:TrackPointExtension>
        </extensions>
      </trkpt>
      <trkpt lat="31.15586467087268829345703125" lon="121.47457052953541278839111328125">
        <ele>11.19999980926513671875</ele>
        <time>2026-03-30T01:36:16.000Z</time>
        <extensions>
          <ns3:TrackPointExtension>
            <ns3:atemp>29.0</ns3:atemp>
            <ns3:hr>125</ns3:hr>
          </ns3:TrackPointExtension>
        </extensions>
      </trkpt>
      <trkpt lat="31.15588705055415630340576171875" lon="121.4745002053678035736083984375">
        <ele>11</ele>
        <time>2026-03-30T01:36:21.000Z</time>
        <extensions>
          <ns3:TrackPointExtension>
            <ns3:atemp>29.0</ns3:atemp>
            <ns3:hr>125</ns3:hr>
          </ns3:TrackPointExtension>
        </extensions>
      </trkpt>
      <trkpt lat="31.155958883464336395263671875" lon="121.47433382458984851837158203125">
        <ele>11</ele>
        <time>2026-03-30T01:36:32.000Z</time>
        <extensions>
          <ns3:TrackPointExtension>
            <ns3:atemp>29.0</ns3:atemp>
            <ns3:hr>124</ns3:hr>
          </ns3:TrackPointExtension>
        </extensions>
      </trkpt>
      <trkpt lat="31.15598076023161411285400390625" lon="121.474289484322071075439453125">
        <ele>11</ele>
        <time>2026-03-30T01:36:35.000Z</time>
        <extensions>
          <ns3:TrackPointExtension>
            <ns3:atemp>29.0</ns3:atemp>
            <ns3:hr>120</ns3:hr>
          </ns3:TrackPointExtension>
        </extensions>
      </trkpt>
      <trkpt lat="31.155993752181529998779296875" lon="121.4742641709744930267333984375">
        <ele>11</ele>
        <time>2026-03-30T01:36:37.000Z</time>
        <extensions>
          <ns3:TrackPointExtension>
            <ns3:atemp>29.0</ns3:atemp>
            <ns3:hr>117</ns3:hr>
          </ns3:TrackPointExtension>
        </extensions>
      </trkpt>
      <trkpt lat="31.156012527644634246826171875" lon="121.474200971424579620361328125">
        <ele>10.80000019073486328125</ele>
        <time>2026-03-30T01:36:41.000Z</time>
        <extensions>
          <ns3:TrackPointExtension>
            <ns3:atemp>29.0</ns3:atemp>
            <ns3:hr>114</ns3:hr>
          </ns3:TrackPointExtension>
        </extensions>
      </trkpt>
      <trkpt lat="31.156019233167171478271484375" lon="121.4741657674312591552734375">
        <ele>10.80000019073486328125</ele>
        <time>2026-03-30T01:36:43.000Z</time>
        <extensions>
          <ns3:TrackPointExtension>
            <ns3:atemp>29.0</ns3:atemp>
            <ns3:hr>114</ns3:hr>
          </ns3:TrackPointExtension>
        </extensions>
      </trkpt>
      <trkpt lat="31.156056113541126251220703125" lon="121.47404699586331844329833984375">
        <ele>10.80000019073486328125</ele>
        <time>2026-03-30T01:36:51.000Z</time>
        <extensions>
          <ns3:TrackPointExtension>
            <ns3:atemp>29.0</ns3:atemp>
            <ns3:hr>115</ns3:hr>
          </ns3:TrackPointExtension>
        </extensions>
      </trkpt>
      <trkpt lat="31.15607799030840396881103515625" lon="121.474014557898044586181640625">
        <ele>10.80000019073486328125</ele>
        <time>2026-03-30T01:36:54.000Z</time>
        <extensions>
          <ns3:TrackPointExtension>
            <ns3:atemp>29.0</ns3:atemp>
            <ns3:hr>119</ns3:hr>
          </ns3:TrackPointExtension>
        </extensions>
      </trkpt>
      <trkpt lat="31.156127862632274627685546875" lon="121.47392143495380878448486328125">
        <ele>10.80000019073486328125</ele>
        <time>2026-03-30T01:37:01.000Z</time>
        <extensions>
          <ns3:TrackPointExtension>
            <ns3:atemp>29.0</ns3:atemp>
            <ns3:hr>115</ns3:hr>
          </ns3:TrackPointExtension>
        </extensions>
      </trkpt>
      <trkpt lat="31.1561417765915393829345703125" lon="121.4738975465297698974609375">
        <ele>10.80000019073486328125</ele>
        <time>2026-03-30T01:37:03.000Z</time>
        <extensions>
          <ns3:TrackPointExtension>
            <ns3:atemp>29.0</ns3:atemp>
            <ns3:hr>116</ns3:hr>
          </ns3:TrackPointExtension>
        </extensions>
      </trkpt>
      <trkpt lat="31.15615812130272388458251953125" lon="121.47380978800356388092041015625">
        <ele>10.80000019073486328125</ele>
        <time>2026-03-30T01:37:08.000Z</time>
        <extensions>
          <ns3:TrackPointExtension>
            <ns3:atemp>29.0</ns3:atemp>
            <ns3:hr>113</ns3:hr>
          </ns3:TrackPointExtension>
        </extensions>
      </trkpt>
      <trkpt lat="31.1561813391745090484619140625" lon="121.47375832311809062957763671875">
        <ele>10.80000019073486328125</ele>
        <time>2026-03-30T01:37:12.000Z</time>
        <extensions>
          <ns3:TrackPointExtension>
            <ns3:atemp>29.0</ns3:atemp>
            <ns3:hr>113</ns3:hr>
          </ns3:TrackPointExtension>
        </extensions>
      </trkpt>
      <trkpt lat="31.1562279425561428070068359375" lon="121.47364416159689426422119140625">
        <ele>10.6000003814697265625</ele>
        <time>2026-03-30T01:37:20.000Z</time>
        <extensions>
          <ns3:TrackPointExtension>
            <ns3:atemp>29.0</ns3:atemp>
            <ns3:hr>113</ns3:hr>
          </ns3:TrackPointExtension>
        </extensions>
      </trkpt>
      <trkpt lat="31.156290136277675628662109375" lon="121.4735081233084201812744140625">
        <ele>10.6000003814697265625</ele>
        <time>2026-03-30T01:37:30.000Z</time>
        <extensions>
          <ns3:TrackPointExtension>
            <ns3:atemp>29.0</ns3:atemp>
            <ns3:hr>113</ns3:hr>
          </ns3:TrackPointExtension>
        </extensions>
      </trkpt>
      <trkpt lat="31.15634118206799030303955078125" lon="121.473329924046993255615234375">
        <ele>10.6000003814697265625</ele>
        <time>2026-03-30T01:37:42.000Z</time>
        <extensions>
          <ns3:TrackPointExtension>
            <ns3:atemp>29.0</ns3:atemp>
            <ns3:hr>113</ns3:hr>
          </ns3:TrackPointExtension>
        </extensions>
      </trkpt>
      <trkpt lat="31.15636884234845638275146484375" lon="121.4732053689658641815185546875">
        <ele>10.3999996185302734375</ele>
        <time>2026-03-30T01:37:50.000Z</time>
        <extensions>
          <ns3:TrackPointExtension>
            <ns3:atemp>29.0</ns3:atemp>
            <ns3:hr>114</ns3:hr>
          </ns3:TrackPointExtension>
        </extensions>
      </trkpt>
      <trkpt lat="31.15641343407332897186279296875" lon="121.47303580306470394134521484375">
        <ele>10.6000003814697265625</ele>
        <time>2026-03-30T01:38:01.000Z</time>
        <extensions>
          <ns3:TrackPointExtension>
            <ns3:atemp>29.0</ns3:atemp>
            <ns3:hr>115</ns3:hr>
          </ns3:TrackPointExtension>
        </extensions>
      </trkpt>
      <trkpt lat="31.15642659366130828857421875" lon="121.47295835427939891815185546875">
        <ele>10.6000003814697265625</ele>
        <time>2026-03-30T01:38:06.000Z</time>
        <extensions>
          <ns3:TrackPointExtension>
            <ns3:atemp>29.0</ns3:atemp>
            <ns3:hr>115</ns3:hr>
          </ns3:TrackPointExtension>
        </extensions>
      </trkpt>
      <trkpt lat="31.1564431898295879364013671875" lon="121.4728979207575321197509765625">
        <ele>10.6000003814697265625</ele>
        <time>2026-03-30T01:38:10.000Z</time>
        <extensions>
          <ns3:TrackPointExtension>
            <ns3:atemp>29.0</ns3:atemp>
            <ns3:hr>114</ns3:hr>
          </ns3:TrackPointExtension>
        </extensions>
      </trkpt>
      <trkpt lat="31.15645132027566432952880859375" lon="121.47288593463599681854248046875">
        <ele>10.6000003814697265625</ele>
        <time>2026-03-30T01:38:11.000Z</time>
        <extensions>
          <ns3:TrackPointExtension>
            <ns3:atemp>29.0</ns3:atemp>
            <ns3:hr>114</ns3:hr>
          </ns3:TrackPointExtension>
        </extensions>
      </trkpt>
      <trkpt lat="31.156479232013225555419921875" lon="121.47281133569777011871337890625">
        <ele>10.6000003814697265625</ele>
        <time>2026-03-30T01:38:16.000Z</time>
        <extensions>
          <ns3:TrackPointExtension>
            <ns3:atemp>29.0</ns3:atemp>
            <ns3:hr>113</ns3:hr>
          </ns3:TrackPointExtension>
        </extensions>
      </trkpt>
      <trkpt lat="31.15648434497416019439697265625" lon="121.47278870455920696258544921875">
        <ele>10.3999996185302734375</ele>
        <time>2026-03-30T01:38:17.000Z</time>
        <extensions>
          <ns3:TrackPointExtension>
            <ns3:atemp>29.0</ns3:atemp>
            <ns3:hr>113</ns3:hr>
          </ns3:TrackPointExtension>
        </extensions>
      </trkpt>
      <trkpt lat="31.15652273409068584442138671875" lon="121.472675800323486328125">
        <ele>10.3999996185302734375</ele>
        <time>2026-03-30T01:38:25.000Z</time>
        <extensions>
          <ns3:TrackPointExtension>
            <ns3:atemp>28.0</ns3:atemp>
            <ns3:hr>114</ns3:hr>
          </ns3:TrackPointExtension>
        </extensions>
      </trkpt>
      <trkpt lat="31.1565913818776607513427734375" lon="121.4724439568817615509033203125">
        <ele>10.6000003814697265625</ele>
        <time>2026-03-30T01:38:39.000Z</time>
        <extensions>
          <ns3:TrackPointExtension>
            <ns3:atemp>28.0</ns3:atemp>
            <ns3:hr>115</ns3:hr>
          </ns3:TrackPointExtension>
        </extensions>
      </trkpt>
      <trkpt lat="31.1566416732966899871826171875" lon="121.47234496660530567169189453125">
        <ele>10.80000019073486328125</ele>
        <time>2026-03-30T01:38:47.000Z</time>
        <extensions>
          <ns3:TrackPointExtension>
            <ns3:atemp>28.0</ns3:atemp>
            <ns3:hr>115</ns3:hr>
          </ns3:TrackPointExtension>
        </extensions>
      </trkpt>
      <trkpt lat="31.15670579485595226287841796875" lon="121.47224052809178829193115234375">
        <ele>10.80000019073486328125</ele>
        <time>2026-03-30T01:38:55.000Z</time>
        <extensions>
          <ns3:TrackPointExtension>
            <ns3:atemp>28.0</ns3:atemp>
            <ns3:hr>115</ns3:hr>
          </ns3:TrackPointExtension>
        </extensions>
      </trkpt>
      <trkpt lat="31.15673898719251155853271484375" lon="121.47210557945072650909423828125">
        <ele>10.80000019073486328125</ele>
        <time>2026-03-30T01:39:04.000Z</time>
        <extensions>
          <ns3:TrackPointExtension>
            <ns3:atemp>28.0</ns3:atemp>
            <ns3:hr>116</ns3:hr>
          </ns3:TrackPointExtension>
        </extensions>
      </trkpt>
      <trkpt lat="31.1567898653447628021240234375" lon="121.4719477482140064239501953125">
        <ele>10.80000019073486328125</ele>
        <time>2026-03-30T01:39:15.000Z</time>
        <extensions>
          <ns3:TrackPointExtension>
            <ns3:atemp>29.0</ns3:atemp>
            <ns3:hr>114</ns3:hr>
          </ns3:TrackPointExtension>
        </extensions>
      </trkpt>
      <trkpt lat="31.1568411625921726226806640625" lon="121.47177256643772125244140625">
        <ele>10.6000003814697265625</ele>
        <time>2026-03-30T01:39:26.000Z</time>
        <extensions>
          <ns3:TrackPointExtension>
            <ns3:atemp>28.0</ns3:atemp>
            <ns3:hr>114</ns3:hr>
          </ns3:TrackPointExtension>
        </extensions>
      </trkpt>
      <trkpt lat="31.15688969381153583526611328125" lon="121.47165320813655853271484375">
        <ele>10.6000003814697265625</ele>
        <time>2026-03-30T01:39:34.000Z</time>
        <extensions>
          <ns3:TrackPointExtension>
            <ns3:atemp>28.0</ns3:atemp>
            <ns3:hr>117</ns3:hr>
          </ns3:TrackPointExtension>
        </extensions>
      </trkpt>
      <trkpt lat="31.15690846927464008331298828125" lon="121.4716074429452419281005859375">
        <ele>10.6000003814697265625</ele>
        <time>2026-03-30T01:39:37.000Z</time>
        <extensions>
          <ns3:TrackPointExtension>
            <ns3:atemp>28.0</ns3:atemp>
            <ns3:hr>116</ns3:hr>
          </ns3:TrackPointExtension>
        </extensions>
      </trkpt>
      <trkpt lat="31.1569806374609470367431640625" lon="121.47143754176795482635498046875">
        <ele>10.6000003814697265625</ele>
        <time>2026-03-30T01:39:49.000Z</time>
        <extensions>
          <ns3:TrackPointExtension>
            <ns3:atemp>28.0</ns3:atemp>
            <ns3:hr>114</ns3:hr>
          </ns3:TrackPointExtension>
        </extensions>
      </trkpt>
      <trkpt lat="31.15698373876512050628662109375" lon="121.47137735970318317413330078125">
        <ele>10.3999996185302734375</ele>
        <time>2026-03-30T01:39:54.000Z</time>
        <extensions>
          <ns3:TrackPointExtension>
            <ns3:atemp>28.0</ns3:atemp>
            <ns3:hr>114</ns3:hr>
          </ns3:TrackPointExtension>
        </extensions>
      </trkpt>
      <trkpt lat="31.156977117061614990234375" lon="121.47136964835226535797119140625">
        <ele>10.3999996185302734375</ele>
        <time>2026-03-30T01:39:55.000Z</time>
        <extensions>
          <ns3:TrackPointExtension>
            <ns3:atemp>28.0</ns3:atemp>
            <ns3:hr>114</ns3:hr>
          </ns3:TrackPointExtension>
        </extensions>
      </trkpt>
      <trkpt lat="31.1569424159824848175048828125" lon="121.4713636972010135650634765625">
        <ele>10.3999996185302734375</ele>
        <time>2026-03-30T01:39:58.000Z</time>
        <extensions>
          <ns3:TrackPointExtension>
            <ns3:atemp>28.0</ns3:atemp>
            <ns3:hr>114</ns3:hr>
          </ns3:TrackPointExtension>
        </extensions>
      </trkpt>
      <trkpt lat="31.15691416896879673004150390625" lon="121.47135506384074687957763671875">
        <ele>10.3999996185302734375</ele>
        <time>2026-03-30T01:40:00.000Z</time>
        <extensions>
          <ns3:TrackPointExtension>
            <ns3:atemp>28.0</ns3:atemp>
            <ns3:hr>114</ns3:hr>
          </ns3:TrackPointExtension>
        </extensions>
      </trkpt>
      <trkpt lat="31.1567831598222255706787109375" lon="121.47133511491119861602783203125">
        <ele>10.19999980926513671875</ele>
        <time>2026-03-30T01:40:08.000Z</time>
        <extensions>
          <ns3:TrackPointExtension>
            <ns3:atemp>28.0</ns3:atemp>
            <ns3:hr>113</ns3:hr>
          </ns3:TrackPointExtension>
        </extensions>
      </trkpt>
      <trkpt lat="31.15661258809268474578857421875" lon="121.4712892659008502960205078125">
        <ele>10.19999980926513671875</ele>
        <time>2026-03-30T01:40:19.000Z</time>
        <extensions>
          <ns3:TrackPointExtension>
            <ns3:atemp>28.0</ns3:atemp>
            <ns3:hr>113</ns3:hr>
          </ns3:TrackPointExtension>
        </extensions>
      </trkpt>
      <trkpt lat="31.15658241324126720428466796875" lon="121.47128482349216938018798828125">
        <ele>10.19999980926513671875</ele>
        <time>2026-03-30T01:40:21.000Z</time>
        <extensions>
          <ns3:TrackPointExtension>
            <ns3:atemp>28.0</ns3:atemp>
            <ns3:hr>112</ns3:hr>
          </ns3:TrackPointExtension>
        </extensions>
      </trkpt>
      <trkpt lat="31.1564931459724903106689453125" lon="121.47126965224742889404296875">
        <ele>10.19999980926513671875</ele>
        <time>2026-03-30T01:40:28.000Z</time>
        <extensions>
          <ns3:TrackPointExtension>
            <ns3:atemp>28.0</ns3:atemp>
            <ns3:hr>113</ns3:hr>
          </ns3:TrackPointExtension>
        </extensions>
      </trkpt>
      <trkpt lat="31.15636230446398258209228515625" lon="121.471241153776645660400390625">
        <ele>10</ele>
        <time>2026-03-30T01:40:38.000Z</time>
        <extensions>
          <ns3:TrackPointExtension>
            <ns3:atemp>28.0</ns3:atemp>
            <ns3:hr>115</ns3:hr>
          </ns3:TrackPointExtension>
        </extensions>
      </trkpt>
      <trkpt lat="31.15626641549170017242431640625" lon="121.47118960507214069366455078125">
        <ele>9.80000019073486328125</ele>
        <time>2026-03-30T01:40:48.000Z</time>
        <extensions>
          <ns3:TrackPointExtension>
            <ns3:atemp>28.0</ns3:atemp>
            <ns3:hr>116</ns3:hr>
          </ns3:TrackPointExtension>
        </extensions>
      </trkpt>
      <trkpt lat="31.1562624759972095489501953125" lon="121.47118608467280864715576171875">
        <ele>9.80000019073486328125</ele>
        <time>2026-03-30T01:40:49.000Z</time>
        <extensions>
          <ns3:TrackPointExtension>
            <ns3:atemp>28.0</ns3:atemp>
            <ns3:hr>116</ns3:hr>
          </ns3:TrackPointExtension>
        </extensions>
      </trkpt>
      <trkpt lat="31.1562621407210826873779296875" lon="121.47118256427347660064697265625">
        <ele>9.80000019073486328125</ele>
        <time>2026-03-30T01:40:50.000Z</time>
        <extensions>
          <ns3:TrackPointExtension>
            <ns3:atemp>28.0</ns3:atemp>
            <ns3:hr>116</ns3:hr>
          </ns3:TrackPointExtension>
        </extensions>
      </trkpt>
      <trkpt lat="31.1562515795230865478515625" lon="121.47117904387414455413818359375">
        <ele>9.80000019073486328125</ele>
        <time>2026-03-30T01:40:53.000Z</time>
        <extensions>
          <ns3:TrackPointExtension>
            <ns3:atemp>28.0</ns3:atemp>
            <ns3:hr>115</ns3:hr>
          </ns3:TrackPointExtension>
        </extensions>
      </trkpt>
      <trkpt lat="31.15624981932342052459716796875" lon="121.47117636166512966156005859375">
        <ele>9.6000003814697265625</ele>
        <time>2026-03-30T01:41:18.000Z</time>
        <extensions>
          <ns3:TrackPointExtension>
            <ns3:atemp>28.0</ns3:atemp>
            <ns3:hr>116</ns3:hr>
          </ns3:TrackPointExtension>
        </extensions>
      </trkpt>
      <trkpt lat="31.15625317208468914031982421875" lon="121.47116848267614841461181640625">
        <ele>9.3999996185302734375</ele>
        <time>2026-03-30T01:41:31.000Z</time>
        <extensions>
          <ns3:TrackPointExtension>
            <ns3:atemp>28.0</ns3:atemp>
            <ns3:hr>113</ns3:hr>
          </ns3:TrackPointExtension>
        </extensions>
      </trkpt>
      <trkpt lat="31.15625359117984771728515625" lon="121.47116772830486297607421875">
        <ele>9.3999996185302734375</ele>
        <time>2026-03-30T01:41:38.000Z</time>
        <extensions>
          <ns3:TrackPointExtension>
            <ns3:atemp>28.0</ns3:atemp>
            <ns3:hr>110</ns3:hr>
          </ns3:TrackPointExtension>
        </extensions>
      </trkpt>
      <trkpt lat="31.1562542617321014404296875" lon="121.4711648784577846527099609375">
        <ele>9.3999996185302734375</ele>
        <time>2026-03-30T01:41:51.000Z</time>
        <extensions>
          <ns3:TrackPointExtension>
            <ns3:atemp>28.0</ns3:atemp>
            <ns3:hr>107</ns3:hr>
          </ns3:TrackPointExtension>
        </extensions>
      </trkpt>
      <trkpt lat="31.1562564410269260406494140625" lon="121.4711595140397548675537109375">
        <ele>9.3999996185302734375</ele>
        <time>2026-03-30T01:42:01.000Z</time>
        <extensions>
          <ns3:TrackPointExtension>
            <ns3:atemp>28.0</ns3:atemp>
            <ns3:hr>104</ns3:hr>
          </ns3:TrackPointExtension>
        </extensions>
      </trkpt>
      <trkpt lat="31.15626038052141666412353515625" lon="121.47108986042439937591552734375">
        <ele>9.80000019073486328125</ele>
        <time>2026-03-30T01:42:08.000Z</time>
        <extensions>
          <ns3:TrackPointExtension>
            <ns3:atemp>28.0</ns3:atemp>
            <ns3:hr>102</ns3:hr>
          </ns3:TrackPointExtension>
        </extensions>
      </trkpt>
      <trkpt lat="31.15627999417483806610107421875" lon="121.47085315547883510589599609375">
        <ele>9.80000019073486328125</ele>
        <time>2026-03-30T01:42:21.000Z</time>
        <extensions>
          <ns3:TrackPointExtension>
            <ns3:atemp>28.0</ns3:atemp>
            <ns3:hr>104</ns3:hr>
          </ns3:TrackPointExtension>
        </extensions>
      </trkpt>
      <trkpt lat="31.15626691840589046478271484375" lon="121.4707779698073863983154296875">
        <ele>9.80000019073486328125</ele>
        <time>2026-03-30T01:42:26.000Z</time>
        <extensions>
          <ns3:TrackPointExtension>
            <ns3:atemp>28.0</ns3:atemp>
            <ns3:hr>108</ns3:hr>
          </ns3:TrackPointExtension>
        </extensions>
      </trkpt>
      <trkpt lat="31.15623707883059978485107421875" lon="121.47069239057600498199462890625">
        <ele>10</ele>
        <time>2026-03-30T01:42:32.000Z</time>
        <extensions>
          <ns3:TrackPointExtension>
            <ns3:atemp>28.0</ns3:atemp>
            <ns3:hr>108</ns3:hr>
          </ns3:TrackPointExtension>
        </extensions>
      </trkpt>
      <trkpt lat="31.156205646693706512451171875" lon="121.4706327952444553375244140625">
        <ele>9.80000019073486328125</ele>
        <time>2026-03-30T01:42:40.000Z</time>
        <extensions>
          <ns3:TrackPointExtension>
            <ns3:atemp>28.0</ns3:atemp>
            <ns3:hr>111</ns3:hr>
          </ns3:TrackPointExtension>
        </extensions>
      </trkpt>
      <trkpt lat="31.156204640865325927734375" lon="121.47063195705413818359375">
        <ele>9.80000019073486328125</ele>
        <time>2026-03-30T01:42:41.000Z</time>
        <extensions>
          <ns3:TrackPointExtension>
            <ns3:atemp>28.0</ns3:atemp>
            <ns3:hr>112</ns3:hr>
          </ns3:TrackPointExtension>
        </extensions>
      </trkpt>
      <trkpt lat="31.156172119081020355224609375" lon="121.4706277661025524139404296875">
        <ele>9.80000019073486328125</ele>
        <time>2026-03-30T01:42:51.000Z</time>
        <extensions>
          <ns3:TrackPointExtension>
            <ns3:atemp>28.0</ns3:atemp>
            <ns3:hr>114</ns3:hr>
          </ns3:TrackPointExtension>
        </extensions>
      </trkpt>
      <trkpt lat="31.15612660534679889678955078125" lon="121.470615528523921966552734375">
        <ele>10</ele>
        <time>2026-03-30T01:42:54.000Z</time>
        <extensions>
          <ns3:TrackPointExtension>
            <ns3:atemp>28.0</ns3:atemp>
            <ns3:hr>114</ns3:hr>
          </ns3:TrackPointExtension>
        </extensions>
      </trkpt>
      <trkpt lat="31.15607262589037418365478515625" lon="121.47058007307350635528564453125">
        <ele>10.19999980926513671875</ele>
        <time>2026-03-30T01:42:59.000Z</time>
        <extensions>
          <ns3:TrackPointExtension>
            <ns3:atemp>28.0</ns3:atemp>
            <ns3:hr>114</ns3:hr>
          </ns3:TrackPointExtension>
        </extensions>
      </trkpt>
      <trkpt lat="31.15603976882994174957275390625" lon="121.4705583639442920684814453125">
        <ele>10</ele>
        <time>2026-03-30T01:43:03.000Z</time>
        <extensions>
          <ns3:TrackPointExtension>
            <ns3:atemp>28.0</ns3:atemp>
            <ns3:hr>114</ns3:hr>
          </ns3:TrackPointExtension>
        </extensions>
      </trkpt>
      <trkpt lat="31.156033985316753387451171875" lon="121.4705623872578144073486328125">
        <ele>9.80000019073486328125</ele>
        <time>2026-03-30T01:43:05.000Z</time>
        <extensions>
          <ns3:TrackPointExtension>
            <ns3:atemp>28.0</ns3:atemp>
            <ns3:hr>115</ns3:hr>
          </ns3:TrackPointExtension>
        </extensions>
      </trkpt>
      <trkpt lat="31.1559808440506458282470703125" lon="121.4705110900104045867919921875">
        <ele>9.80000019073486328125</ele>
        <time>2026-03-30T01:43:12.000Z</time>
        <extensions>
          <ns3:TrackPointExtension>
            <ns3:atemp>28.0</ns3:atemp>
            <ns3:hr>117</ns3:hr>
          </ns3:TrackPointExtension>
        </extensions>
      </trkpt>
      <trkpt lat="31.15597589872777462005615234375" lon="121.47050664760172367095947265625">
        <ele>9.80000019073486328125</ele>
        <time>2026-03-30T01:43:13.000Z</time>
        <extensions>
          <ns3:TrackPointExtension>
            <ns3:atemp>28.0</ns3:atemp>
            <ns3:hr>114</ns3:hr>
          </ns3:TrackPointExtension>
        </extensions>
      </trkpt>
      <trkpt lat="31.1559645831584930419921875" lon="121.47050111554563045501708984375">
        <ele>10.19999980926513671875</ele>
        <time>2026-03-30T01:43:17.000Z</time>
        <extensions>
          <ns3:TrackPointExtension>
            <ns3:atemp>28.0</ns3:atemp>
            <ns3:hr>113</ns3:hr>
          </ns3:TrackPointExtension>
        </extensions>
      </trkpt>
    </trkseg>
  </trk>
</gpx>
