<gpx xmlns:ns3="http://www.garmin.com/xmlschemas/TrackPointExtension/v1" xmlns="http://www.topografix.com/GPX/1/1" xmlns:xsi="http://www.w3.org/2001/XMLSchema-instance" xmlns:ns2="http://www.garmin.com/xmlschemas/GpxExtensions/v3" creator="Garmin Connect" version="1.1" xsi:schemaLocation="http://www.topografix.com/GPX/1/1 http://www.topografix.com/GPX/11.xsd">
  <extensions>
<distance>1214.34</distance>
<average_hr>80.0</average_hr>
<average_speed>0.34000000357627863</average_speed>
<start_time>2026-03-30T10:16:44+00:00</start_time>
<end_time>2026-03-30T11:16:16.192000+00:00</end_time>
<moving_time>434.0</moving_time>
<elapsed_time>3572.192</elapsed_time>
</extensions>
<metadata>
    <link href="connect.garmin.com">
      <text>Garmin Connect</text>
    </link>
    <time>2026-03-30T10:16:44.000Z</time>
  </metadata>
  <trk>
    <name>浦东新区 Commuting</name>
    <type>other</type>
    <trkseg>
      <trkpt lat="31.15569175221025943756103515625" lon="121.47515625692903995513916015625">
        <ele>28.799999237060546875</ele>
        <time>2026-03-30T10:16:50.000Z</time>
        <extensions>
          <ns3:TrackPointExtension>
            <ns3:atemp>30.0</ns3:atemp>
            <ns3:hr>89</ns3:hr>
          </ns3:TrackPointExtension>
        </extensions>
      </trkpt>
      <trkpt lat="31.15568353794515132904052734375" lon="121.4754183590412139892578125">
        <ele>28.3999996185302734375</ele>
        <time>2026-03-30T10:16:52.000Z</time>
        <extensions>
          <ns3:TrackPointExtension>
            <ns3:atemp>30.0</ns3:atemp>
            <ns3:hr>88</ns3:hr>
          </ns3:TrackPointExtension>
        </extensions>
      </trkpt>
      <trkpt lat="31.15568521432578563690185546875" lon="121.47547493688762187957763671875">
        <ele>27.3999996185302734375</ele>
        <time>2026-03-30T10:16:55.000Z</time>
        <extensions>
          <ns3:TrackPointExtension>
            <ns3:atemp>30.0</ns3:atemp>
            <ns3:hr>89</ns3:hr>
          </ns3:TrackPointExtension>
        </extensions>
      </trkpt>
      <trkpt lat="31.15568303503096103668212890625" lon="121.4754979871213436126708984375">
        <ele>27.200000762939453125</ele>
        <time>2026-03-30T10:16:56.000Z</time>
        <extensions>
          <ns3:TrackPointExtension>
            <ns3:atemp>30.0</ns3:atemp>
            <ns3:hr>87</ns3:hr>
          </ns3:TrackPointExtension>
        </extensions>
      </trkpt>
      <trkpt lat="31.1557347513735294342041015625" lon="121.4754855819046497344970703125">
        <ele>27</ele>
        <time>2026-03-30T10:17:00.000Z</time>
        <extensions>
          <ns3:TrackPointExtension>
            <ns3:atemp>30.0</ns3:atemp>
            <ns3:hr>88</ns3:hr>
          </ns3:TrackPointExtension>
        </extensions>
      </trkpt>
      <trkpt lat="31.15576534532010555267333984375" lon="121.47552506066858768463134765625">
        <ele>27</ele>
        <time>2026-03-30T10:17:06.000Z</time>
        <extensions>
          <ns3:TrackPointExtension>
            <ns3:atemp>30.0</ns3:atemp>
            <ns3:hr>88</ns3:hr>
          </ns3:TrackPointExtension>
        </extensions>
      </trkpt>
      <trkpt lat="31.15580541081726551055908203125" lon="121.47556227631866931915283203125">
        <ele>27</ele>
        <time>2026-03-30T10:17:13.000Z</time>
        <extensions>
          <ns3:TrackPointExtension>
            <ns3:atemp>30.0</ns3:atemp>
            <ns3:hr>88</ns3:hr>
          </ns3:TrackPointExtension>
        </extensions>
      </trkpt>
      <trkpt lat="31.15583508275449275970458984375" lon="121.4755472727119922637939453125">
        <ele>27</ele>
        <time>2026-03-30T10:17:18.000Z</time>
        <extensions>
          <ns3:TrackPointExtension>
            <ns3:atemp>30.0</ns3:atemp>
            <ns3:hr>89</ns3:hr>
          </ns3:TrackPointExtension>
        </extensions>
      </trkpt>
      <trkpt lat="31.10179494135081768035888671875" lon="121.41325724311172962188720703125">
        <ele>18.799999237060546875</ele>
        <time>2026-03-30T11:07:16.000Z</time>
        <extensions>
          <ns3:TrackPointExtension>
            <ns3:atemp>29.0</ns3:atemp>
            <ns3:hr>86</ns3:hr>
          </ns3:TrackPointExtension>
        </extensions>
      </trkpt>
      <trkpt lat="31.10177583061158657073974609375" lon="121.41332094557583332061767578125">
        <ele>19.3999996185302734375</ele>
        <time>2026-03-30T11:07:18.000Z</time>
        <extensions>
          <ns3:TrackPointExtension>
            <ns3:atemp>29.0</ns3:atemp>
            <ns3:hr>84</ns3:hr>
          </ns3:TrackPointExtension>
        </extensions>
      </trkpt>
      <trkpt lat="31.10185277648270130157470703125" lon="121.41328272409737110137939453125">
        <ele>20</ele>
        <time>2026-03-30T11:07:20.000Z</time>
        <extensions>
          <ns3:TrackPointExtension>
            <ns3:atemp>29.0</ns3:atemp>
            <ns3:hr>83</ns3:hr>
          </ns3:TrackPointExtension>
        </extensions>
      </trkpt>
      <trkpt lat="31.101831905543804168701171875" lon="121.41322120092809200286865234375">
        <ele>21.3999996185302734375</ele>
        <time>2026-03-30T11:07:24.000Z</time>
        <extensions>
          <ns3:TrackPointExtension>
            <ns3:atemp>29.0</ns3:atemp>
            <ns3:hr>82</ns3:hr>
          </ns3:TrackPointExtension>
        </extensions>
      </trkpt>
      <trkpt lat="31.101852692663669586181640625" lon="121.4131587557494640350341796875">
        <ele>22.6000003814697265625</ele>
        <time>2026-03-30T11:07:28.000Z</time>
        <extensions>
          <ns3:TrackPointExtension>
            <ns3:atemp>29.0</ns3:atemp>
            <ns3:hr>82</ns3:hr>
          </ns3:TrackPointExtension>
        </extensions>
      </trkpt>
      <trkpt lat="31.10181036405265331268310546875" lon="121.4131428301334381103515625">
        <ele>23</ele>
        <time>2026-03-30T11:07:31.000Z</time>
        <extensions>
          <ns3:TrackPointExtension>
            <ns3:atemp>29.0</ns3:atemp>
            <ns3:hr>79</ns3:hr>
          </ns3:TrackPointExtension>
        </extensions>
      </trkpt>
      <trkpt lat="31.10178597271442413330078125" lon="121.41313402913510799407958984375">
        <ele>23</ele>
        <time>2026-03-30T11:07:33.000Z</time>
        <extensions>
          <ns3:TrackPointExtension>
            <ns3:atemp>29.0</ns3:atemp>
            <ns3:hr>76</ns3:hr>
          </ns3:TrackPointExtension>
        </extensions>
      </trkpt>
      <trkpt lat="31.10176317393779754638671875" lon="121.41311726532876491546630859375">
        <ele>23</ele>
        <time>2026-03-30T11:07:35.000Z</time>
        <extensions>
          <ns3:TrackPointExtension>
            <ns3:atemp>29.0</ns3:atemp>
            <ns3:hr>76</ns3:hr>
          </ns3:TrackPointExtension>
        </extensions>
      </trkpt>
      <trkpt lat="31.10174917615950107574462890625" lon="121.41311726532876491546630859375">
        <ele>22.799999237060546875</ele>
        <time>2026-03-30T11:07:40.000Z</time>
        <extensions>
          <ns3:TrackPointExtension>
            <ns3:atemp>29.0</ns3:atemp>
            <ns3:hr>77</ns3:hr>
          </ns3:TrackPointExtension>
        </extensions>
      </trkpt>
      <trkpt lat="31.10173325054347515106201171875" lon="121.41310653649270534515380859375">
        <ele>22.799999237060546875</ele>
        <time>2026-03-30T11:07:42.000Z</time>
        <extensions>
          <ns3:TrackPointExtension>
            <ns3:atemp>29.0</ns3:atemp>
            <ns3:hr>76</ns3:hr>
          </ns3:TrackPointExtension>
        </extensions>
      </trkpt>
      <trkpt lat="31.10172788612544536590576171875" lon="121.4131010882556438446044921875">
        <ele>22.799999237060546875</ele>
        <time>2026-03-30T11:07:43.000Z</time>
        <extensions>
          <ns3:TrackPointExtension>
            <ns3:atemp>29.0</ns3:atemp>
            <ns3:hr>76</ns3:hr>
          </ns3:TrackPointExtension>
        </extensions>
      </trkpt>
      <trkpt lat="31.10172118060290813446044921875" lon="121.4130816422402858734130859375">
        <ele>22.6000003814697265625</ele>
        <time>2026-03-30T11:07:45.000Z</time>
        <extensions>
          <ns3:TrackPointExtension>
            <ns3:atemp>29.0</ns3:atemp>
            <ns3:hr>73</ns3:hr>
          </ns3:TrackPointExtension>
        </extensions>
      </trkpt>
      <trkpt lat="31.10169754363596439361572265625" lon="121.41302573494613170623779296875">
        <ele>22.6000003814697265625</ele>
        <time>2026-03-30T11:07:49.000Z</time>
        <extensions>
          <ns3:TrackPointExtension>
            <ns3:atemp>29.0</ns3:atemp>
            <ns3:hr>74</ns3:hr>
          </ns3:TrackPointExtension>
        </extensions>
      </trkpt>
      <trkpt lat="31.10169301740825176239013671875" lon="121.41301517374813556671142578125">
        <ele>22.6000003814697265625</ele>
        <time>2026-03-30T11:07:50.000Z</time>
        <extensions>
          <ns3:TrackPointExtension>
            <ns3:atemp>29.0</ns3:atemp>
            <ns3:hr>74</ns3:hr>
          </ns3:TrackPointExtension>
        </extensions>
      </trkpt>
      <trkpt lat="31.1016838811337947845458984375" lon="121.41299237497150897979736328125">
        <ele>22.6000003814697265625</ele>
        <time>2026-03-30T11:07:52.000Z</time>
        <extensions>
          <ns3:TrackPointExtension>
            <ns3:atemp>29.0</ns3:atemp>
            <ns3:hr>77</ns3:hr>
          </ns3:TrackPointExtension>
        </extensions>
      </trkpt>
      <trkpt lat="31.10167290084064006805419921875" lon="121.41294996254146099090576171875">
        <ele>22.3999996185302734375</ele>
        <time>2026-03-30T11:07:55.000Z</time>
        <extensions>
          <ns3:TrackPointExtension>
            <ns3:atemp>29.0</ns3:atemp>
            <ns3:hr>80</ns3:hr>
          </ns3:TrackPointExtension>
        </extensions>
      </trkpt>
      <trkpt lat="31.10163048841059207916259765625" lon="121.4128952287137508392333984375">
        <ele>22.3999996185302734375</ele>
        <time>2026-03-30T11:07:58.000Z</time>
        <extensions>
          <ns3:TrackPointExtension>
            <ns3:atemp>29.0</ns3:atemp>
            <ns3:hr>82</ns3:hr>
          </ns3:TrackPointExtension>
        </extensions>
      </trkpt>
      <trkpt lat="31.10159796662628650665283203125" lon="121.412858180701732635498046875">
        <ele>22.3999996185302734375</ele>
        <time>2026-03-30T11:08:00.000Z</time>
        <extensions>
          <ns3:TrackPointExtension>
            <ns3:atemp>29.0</ns3:atemp>
            <ns3:hr>83</ns3:hr>
          </ns3:TrackPointExtension>
        </extensions>
      </trkpt>
      <trkpt lat="31.10155371017754077911376953125" lon="121.41277126036584377288818359375">
        <ele>22.3999996185302734375</ele>
        <time>2026-03-30T11:08:04.000Z</time>
        <extensions>
          <ns3:TrackPointExtension>
            <ns3:atemp>29.0</ns3:atemp>
            <ns3:hr>86</ns3:hr>
          </ns3:TrackPointExtension>
        </extensions>
      </trkpt>
      <trkpt lat="31.1015521176159381866455078125" lon="121.4127527363598346710205078125">
        <ele>22.3999996185302734375</ele>
        <time>2026-03-30T11:08:05.000Z</time>
        <extensions>
          <ns3:TrackPointExtension>
            <ns3:atemp>29.0</ns3:atemp>
            <ns3:hr>87</ns3:hr>
          </ns3:TrackPointExtension>
        </extensions>
      </trkpt>
      <trkpt lat="31.1015236191451549530029296875" lon="121.41267755068838596343994140625">
        <ele>22</ele>
        <time>2026-03-30T11:08:09.000Z</time>
        <extensions>
          <ns3:TrackPointExtension>
            <ns3:atemp>29.0</ns3:atemp>
            <ns3:hr>90</ns3:hr>
          </ns3:TrackPointExtension>
        </extensions>
      </trkpt>
      <trkpt lat="31.1014947853982448577880859375" lon="121.41262424178421497344970703125">
        <ele>21.799999237060546875</ele>
        <time>2026-03-30T11:08:13.000Z</time>
        <extensions>
          <ns3:TrackPointExtension>
            <ns3:atemp>29.0</ns3:atemp>
            <ns3:hr>89</ns3:hr>
          </ns3:TrackPointExtension>
        </extensions>
      </trkpt>
      <trkpt lat="31.10146217979490756988525390625" lon="121.41252483241260051727294921875">
        <ele>21.799999237060546875</ele>
        <time>2026-03-30T11:08:19.000Z</time>
        <extensions>
          <ns3:TrackPointExtension>
            <ns3:atemp>29.0</ns3:atemp>
            <ns3:hr>92</ns3:hr>
          </ns3:TrackPointExtension>
        </extensions>
      </trkpt>
      <trkpt lat="31.1014666222035884857177734375" lon="121.4124690927565097808837890625">
        <ele>21.6000003814697265625</ele>
        <time>2026-03-30T11:08:23.000Z</time>
        <extensions>
          <ns3:TrackPointExtension>
            <ns3:atemp>29.0</ns3:atemp>
            <ns3:hr>94</ns3:hr>
          </ns3:TrackPointExtension>
        </extensions>
      </trkpt>
      <trkpt lat="31.10146352089941501617431640625" lon="121.4124466292560100555419921875">
        <ele>21.6000003814697265625</ele>
        <time>2026-03-30T11:08:25.000Z</time>
        <extensions>
          <ns3:TrackPointExtension>
            <ns3:atemp>29.0</ns3:atemp>
            <ns3:hr>94</ns3:hr>
          </ns3:TrackPointExtension>
        </extensions>
      </trkpt>
      <trkpt lat="31.1014632694423198699951171875" lon="121.4124333858489990234375">
        <ele>21.6000003814697265625</ele>
        <time>2026-03-30T11:08:26.000Z</time>
        <extensions>
          <ns3:TrackPointExtension>
            <ns3:atemp>28.0</ns3:atemp>
            <ns3:hr>95</ns3:hr>
          </ns3:TrackPointExtension>
        </extensions>
      </trkpt>
      <trkpt lat="31.10145916230976581573486328125" lon="121.41239114105701446533203125">
        <ele>21.3999996185302734375</ele>
        <time>2026-03-30T11:08:30.000Z</time>
        <extensions>
          <ns3:TrackPointExtension>
            <ns3:atemp>28.0</ns3:atemp>
            <ns3:hr>95</ns3:hr>
          </ns3:TrackPointExtension>
        </extensions>
      </trkpt>
      <trkpt lat="31.10145966522395610809326171875" lon="121.41238041222095489501953125">
        <ele>21.3999996185302734375</ele>
        <time>2026-03-30T11:08:31.000Z</time>
        <extensions>
          <ns3:TrackPointExtension>
            <ns3:atemp>28.0</ns3:atemp>
            <ns3:hr>95</ns3:hr>
          </ns3:TrackPointExtension>
        </extensions>
      </trkpt>
      <trkpt lat="31.10145832411944866180419921875" lon="121.41227153129875659942626953125">
        <ele>21.3999996185302734375</ele>
        <time>2026-03-30T11:08:39.000Z</time>
        <extensions>
          <ns3:TrackPointExtension>
            <ns3:atemp>28.0</ns3:atemp>
            <ns3:hr>95</ns3:hr>
          </ns3:TrackPointExtension>
        </extensions>
      </trkpt>
      <trkpt lat="31.1014384590089321136474609375" lon="121.412217803299427032470703125">
        <ele>21.3999996185302734375</ele>
        <time>2026-03-30T11:08:42.000Z</time>
        <extensions>
          <ns3:TrackPointExtension>
            <ns3:atemp>28.0</ns3:atemp>
            <ns3:hr>98</ns3:hr>
          </ns3:TrackPointExtension>
        </extensions>
      </trkpt>
      <trkpt lat="31.1014163307845592498779296875" lon="121.412149406969547271728515625">
        <ele>21.6000003814697265625</ele>
        <time>2026-03-30T11:08:46.000Z</time>
        <extensions>
          <ns3:TrackPointExtension>
            <ns3:atemp>28.0</ns3:atemp>
            <ns3:hr>101</ns3:hr>
          </ns3:TrackPointExtension>
        </extensions>
      </trkpt>
      <trkpt lat="31.10141758807003498077392578125" lon="121.41213138587772846221923828125">
        <ele>21.799999237060546875</ele>
        <time>2026-03-30T11:08:47.000Z</time>
        <extensions>
          <ns3:TrackPointExtension>
            <ns3:atemp>28.0</ns3:atemp>
            <ns3:hr>102</ns3:hr>
          </ns3:TrackPointExtension>
        </extensions>
      </trkpt>
      <trkpt lat="31.101378612220287322998046875" lon="121.411992497742176055908203125">
        <ele>22</ele>
        <time>2026-03-30T11:08:55.000Z</time>
        <extensions>
          <ns3:TrackPointExtension>
            <ns3:atemp>28.0</ns3:atemp>
            <ns3:hr>100</ns3:hr>
          </ns3:TrackPointExtension>
        </extensions>
      </trkpt>
      <trkpt lat="31.10135103575885295867919921875" lon="121.4118887297809123992919921875">
        <ele>22.200000762939453125</ele>
        <time>2026-03-30T11:09:03.000Z</time>
        <extensions>
          <ns3:TrackPointExtension>
            <ns3:atemp>28.0</ns3:atemp>
            <ns3:hr>97</ns3:hr>
          </ns3:TrackPointExtension>
        </extensions>
      </trkpt>
      <trkpt lat="31.101341061294078826904296875" lon="121.4118578843772411346435546875">
        <ele>22.200000762939453125</ele>
        <time>2026-03-30T11:09:05.000Z</time>
        <extensions>
          <ns3:TrackPointExtension>
            <ns3:atemp>28.0</ns3:atemp>
            <ns3:hr>97</ns3:hr>
          </ns3:TrackPointExtension>
        </extensions>
      </trkpt>
      <trkpt lat="31.1013033427298069000244140625" lon="121.4117090217769145965576171875">
        <ele>22</ele>
        <time>2026-03-30T11:09:14.000Z</time>
        <extensions>
          <ns3:TrackPointExtension>
            <ns3:atemp>28.0</ns3:atemp>
            <ns3:hr>94</ns3:hr>
          </ns3:TrackPointExtension>
        </extensions>
      </trkpt>
      <trkpt lat="31.10129688866436481475830078125" lon="121.411698795855045318603515625">
        <ele>22</ele>
        <time>2026-03-30T11:09:15.000Z</time>
        <extensions>
          <ns3:TrackPointExtension>
            <ns3:atemp>28.0</ns3:atemp>
            <ns3:hr>94</ns3:hr>
          </ns3:TrackPointExtension>
        </extensions>
      </trkpt>
      <trkpt lat="31.101272664964199066162109375" lon="121.4115923456847667694091796875">
        <ele>21.3999996185302734375</ele>
        <time>2026-03-30T11:09:22.000Z</time>
        <extensions>
          <ns3:TrackPointExtension>
            <ns3:atemp>28.0</ns3:atemp>
            <ns3:hr>93</ns3:hr>
          </ns3:TrackPointExtension>
        </extensions>
      </trkpt>
      <trkpt lat="31.101240813732147216796875" lon="121.4114619232714176177978515625">
        <ele>21</ele>
        <time>2026-03-30T11:09:31.000Z</time>
        <extensions>
          <ns3:TrackPointExtension>
            <ns3:atemp>28.0</ns3:atemp>
            <ns3:hr>96</ns3:hr>
          </ns3:TrackPointExtension>
        </extensions>
      </trkpt>
      <trkpt lat="31.10123503021895885467529296875" lon="121.4113462530076503753662109375">
        <ele>20.799999237060546875</ele>
        <time>2026-03-30T11:09:39.000Z</time>
        <extensions>
          <ns3:TrackPointExtension>
            <ns3:atemp>28.0</ns3:atemp>
            <ns3:hr>99</ns3:hr>
          </ns3:TrackPointExtension>
        </extensions>
      </trkpt>
      <trkpt lat="31.1012302525341510772705078125" lon="121.411334685981273651123046875">
        <ele>20.799999237060546875</ele>
        <time>2026-03-30T11:09:40.000Z</time>
        <extensions>
          <ns3:TrackPointExtension>
            <ns3:atemp>28.0</ns3:atemp>
            <ns3:hr>99</ns3:hr>
          </ns3:TrackPointExtension>
        </extensions>
      </trkpt>
      <trkpt lat="31.101196892559528350830078125" lon="121.411204598844051361083984375">
        <ele>21.200000762939453125</ele>
        <time>2026-03-30T11:09:49.000Z</time>
        <extensions>
          <ns3:TrackPointExtension>
            <ns3:atemp>28.0</ns3:atemp>
            <ns3:hr>100</ns3:hr>
          </ns3:TrackPointExtension>
        </extensions>
      </trkpt>
      <trkpt lat="31.10119211487472057342529296875" lon="121.4111263118684291839599609375">
        <ele>21.6000003814697265625</ele>
        <time>2026-03-30T11:09:55.000Z</time>
        <extensions>
          <ns3:TrackPointExtension>
            <ns3:atemp>27.0</ns3:atemp>
            <ns3:hr>98</ns3:hr>
          </ns3:TrackPointExtension>
        </extensions>
      </trkpt>
      <trkpt lat="31.10119320452213287353515625" lon="121.4111031778156757354736328125">
        <ele>21.6000003814697265625</ele>
        <time>2026-03-30T11:09:57.000Z</time>
        <extensions>
          <ns3:TrackPointExtension>
            <ns3:atemp>27.0</ns3:atemp>
            <ns3:hr>98</ns3:hr>
          </ns3:TrackPointExtension>
        </extensions>
      </trkpt>
      <trkpt lat="31.101175434887409210205078125" lon="121.41099505126476287841796875">
        <ele>21.6000003814697265625</ele>
        <time>2026-03-30T11:10:05.000Z</time>
        <extensions>
          <ns3:TrackPointExtension>
            <ns3:atemp>27.0</ns3:atemp>
            <ns3:hr>96</ns3:hr>
          </ns3:TrackPointExtension>
        </extensions>
      </trkpt>
      <trkpt lat="31.10115724615752696990966796875" lon="121.41090787947177886962890625">
        <ele>21.6000003814697265625</ele>
        <time>2026-03-30T11:10:12.000Z</time>
        <extensions>
          <ns3:TrackPointExtension>
            <ns3:atemp>27.0</ns3:atemp>
            <ns3:hr>95</ns3:hr>
          </ns3:TrackPointExtension>
        </extensions>
      </trkpt>
      <trkpt lat="31.10114157199859619140625" lon="121.41085247509181499481201171875">
        <ele>21.3999996185302734375</ele>
        <time>2026-03-30T11:10:17.000Z</time>
        <extensions>
          <ns3:TrackPointExtension>
            <ns3:atemp>27.0</ns3:atemp>
            <ns3:hr>92</ns3:hr>
          </ns3:TrackPointExtension>
        </extensions>
      </trkpt>
      <trkpt lat="31.101137213408946990966796875" lon="121.41079547815024852752685546875">
        <ele>21.200000762939453125</ele>
        <time>2026-03-30T11:10:20.000Z</time>
        <extensions>
          <ns3:TrackPointExtension>
            <ns3:atemp>27.0</ns3:atemp>
            <ns3:hr>93</ns3:hr>
          </ns3:TrackPointExtension>
        </extensions>
      </trkpt>
      <trkpt lat="31.10110846348106861114501953125" lon="121.41070512123405933380126953125">
        <ele>21.200000762939453125</ele>
        <time>2026-03-30T11:10:26.000Z</time>
        <extensions>
          <ns3:TrackPointExtension>
            <ns3:atemp>27.0</ns3:atemp>
            <ns3:hr>96</ns3:hr>
          </ns3:TrackPointExtension>
        </extensions>
      </trkpt>
      <trkpt lat="31.10109773464500904083251953125" lon="121.41065130941569805145263671875">
        <ele>21</ele>
        <time>2026-03-30T11:10:29.000Z</time>
        <extensions>
          <ns3:TrackPointExtension>
            <ns3:atemp>27.0</ns3:atemp>
            <ns3:hr>97</ns3:hr>
          </ns3:TrackPointExtension>
        </extensions>
      </trkpt>
      <trkpt lat="31.101024560630321502685546875" lon="121.41047746874392032623291015625">
        <ele>21.200000762939453125</ele>
        <time>2026-03-30T11:10:39.000Z</time>
        <extensions>
          <ns3:TrackPointExtension>
            <ns3:atemp>27.0</ns3:atemp>
            <ns3:hr>96</ns3:hr>
          </ns3:TrackPointExtension>
        </extensions>
      </trkpt>
      <trkpt lat="31.10102062113583087921142578125" lon="121.41046204604208469390869140625">
        <ele>21.200000762939453125</ele>
        <time>2026-03-30T11:10:40.000Z</time>
        <extensions>
          <ns3:TrackPointExtension>
            <ns3:atemp>27.0</ns3:atemp>
            <ns3:hr>97</ns3:hr>
          </ns3:TrackPointExtension>
        </extensions>
      </trkpt>
      <trkpt lat="31.1009794659912586212158203125" lon="121.410349644720554351806640625">
        <ele>21.3999996185302734375</ele>
        <time>2026-03-30T11:10:48.000Z</time>
        <extensions>
          <ns3:TrackPointExtension>
            <ns3:atemp>27.0</ns3:atemp>
            <ns3:hr>96</ns3:hr>
          </ns3:TrackPointExtension>
        </extensions>
      </trkpt>
      <trkpt lat="31.100977621972560882568359375" lon="121.41022215597331523895263671875">
        <ele>21.3999996185302734375</ele>
        <time>2026-03-30T11:10:58.000Z</time>
        <extensions>
          <ns3:TrackPointExtension>
            <ns3:atemp>27.0</ns3:atemp>
            <ns3:hr>96</ns3:hr>
          </ns3:TrackPointExtension>
        </extensions>
      </trkpt>
      <trkpt lat="31.100934706628322601318359375" lon="121.4101489819586277008056640625">
        <ele>21.3999996185302734375</ele>
        <time>2026-03-30T11:11:04.000Z</time>
        <extensions>
          <ns3:TrackPointExtension>
            <ns3:atemp>27.0</ns3:atemp>
            <ns3:hr>96</ns3:hr>
          </ns3:TrackPointExtension>
        </extensions>
      </trkpt>
      <trkpt lat="31.10091215930879116058349609375" lon="121.41005686484277248382568359375">
        <ele>21.3999996185302734375</ele>
        <time>2026-03-30T11:11:10.000Z</time>
        <extensions>
          <ns3:TrackPointExtension>
            <ns3:atemp>27.0</ns3:atemp>
            <ns3:hr>99</ns3:hr>
          </ns3:TrackPointExtension>
        </extensions>
      </trkpt>
      <trkpt lat="31.10089941881597042083740234375" lon="121.4100175537168979644775390625">
        <ele>21.3999996185302734375</ele>
        <time>2026-03-30T11:11:12.000Z</time>
        <extensions>
          <ns3:TrackPointExtension>
            <ns3:atemp>27.0</ns3:atemp>
            <ns3:hr>99</ns3:hr>
          </ns3:TrackPointExtension>
        </extensions>
      </trkpt>
      <trkpt lat="31.10087963752448558807373046875" lon="121.40988050960004329681396484375">
        <ele>21.3999996185302734375</ele>
        <time>2026-03-30T11:11:21.000Z</time>
        <extensions>
          <ns3:TrackPointExtension>
            <ns3:atemp>27.0</ns3:atemp>
            <ns3:hr>98</ns3:hr>
          </ns3:TrackPointExtension>
        </extensions>
      </trkpt>
      <trkpt lat="31.100842170417308807373046875" lon="121.4097892306745052337646484375">
        <ele>21.3999996185302734375</ele>
        <time>2026-03-30T11:11:30.000Z</time>
        <extensions>
          <ns3:TrackPointExtension>
            <ns3:atemp>27.0</ns3:atemp>
            <ns3:hr>98</ns3:hr>
          </ns3:TrackPointExtension>
        </extensions>
      </trkpt>
      <trkpt lat="31.1008275859057903289794921875" lon="121.4096688665449619293212890625">
        <ele>21.3999996185302734375</ele>
        <time>2026-03-30T11:11:38.000Z</time>
        <extensions>
          <ns3:TrackPointExtension>
            <ns3:atemp>27.0</ns3:atemp>
            <ns3:hr>94</ns3:hr>
          </ns3:TrackPointExtension>
        </extensions>
      </trkpt>
      <trkpt lat="31.10082850791513919830322265625" lon="121.40963994897902011871337890625">
        <ele>21.3999996185302734375</ele>
        <time>2026-03-30T11:11:40.000Z</time>
        <extensions>
          <ns3:TrackPointExtension>
            <ns3:atemp>27.0</ns3:atemp>
            <ns3:hr>93</ns3:hr>
          </ns3:TrackPointExtension>
        </extensions>
      </trkpt>
      <trkpt lat="31.1008309386670589447021484375" lon="121.40961907804012298583984375">
        <ele>21.3999996185302734375</ele>
        <time>2026-03-30T11:11:42.000Z</time>
        <extensions>
          <ns3:TrackPointExtension>
            <ns3:atemp>27.0</ns3:atemp>
            <ns3:hr>92</ns3:hr>
          </ns3:TrackPointExtension>
        </extensions>
      </trkpt>
      <trkpt lat="31.1008252389729022979736328125" lon="121.40959552489221096038818359375">
        <ele>21.3999996185302734375</ele>
        <time>2026-03-30T11:11:44.000Z</time>
        <extensions>
          <ns3:TrackPointExtension>
            <ns3:atemp>27.0</ns3:atemp>
            <ns3:hr>89</ns3:hr>
          </ns3:TrackPointExtension>
        </extensions>
      </trkpt>
      <trkpt lat="31.10080537386238574981689453125" lon="121.40953098423779010772705078125">
        <ele>21.200000762939453125</ele>
        <time>2026-03-30T11:11:47.000Z</time>
        <extensions>
          <ns3:TrackPointExtension>
            <ns3:atemp>27.0</ns3:atemp>
            <ns3:hr>89</ns3:hr>
          </ns3:TrackPointExtension>
        </extensions>
      </trkpt>
      <trkpt lat="31.1007933877408504486083984375" lon="121.4094573073089122772216796875">
        <ele>21</ele>
        <time>2026-03-30T11:11:52.000Z</time>
        <extensions>
          <ns3:TrackPointExtension>
            <ns3:atemp>27.0</ns3:atemp>
            <ns3:hr>93</ns3:hr>
          </ns3:TrackPointExtension>
        </extensions>
      </trkpt>
      <trkpt lat="31.10078576020896434783935546875" lon="121.40941883437335491180419921875">
        <ele>20.6000003814697265625</ele>
        <time>2026-03-30T11:11:55.000Z</time>
        <extensions>
          <ns3:TrackPointExtension>
            <ns3:atemp>27.0</ns3:atemp>
            <ns3:hr>95</ns3:hr>
          </ns3:TrackPointExtension>
        </extensions>
      </trkpt>
      <trkpt lat="31.1007635481655597686767578125" lon="121.40931456349790096282958984375">
        <ele>21.200000762939453125</ele>
        <time>2026-03-30T11:12:03.000Z</time>
        <extensions>
          <ns3:TrackPointExtension>
            <ns3:atemp>26.0</ns3:atemp>
            <ns3:hr>95</ns3:hr>
          </ns3:TrackPointExtension>
        </extensions>
      </trkpt>
      <trkpt lat="31.10076497308909893035888671875" lon="121.40929679386317729949951171875">
        <ele>21.6000003814697265625</ele>
        <time>2026-03-30T11:12:05.000Z</time>
        <extensions>
          <ns3:TrackPointExtension>
            <ns3:atemp>26.0</ns3:atemp>
            <ns3:hr>95</ns3:hr>
          </ns3:TrackPointExtension>
        </extensions>
      </trkpt>
      <trkpt lat="31.100760363042354583740234375" lon="121.4092504419386386871337890625">
        <ele>21.799999237060546875</ele>
        <time>2026-03-30T11:12:09.000Z</time>
        <extensions>
          <ns3:TrackPointExtension>
            <ns3:atemp>26.0</ns3:atemp>
            <ns3:hr>98</ns3:hr>
          </ns3:TrackPointExtension>
        </extensions>
      </trkpt>
      <trkpt lat="31.100757010281085968017578125" lon="121.40923812054097652435302734375">
        <ele>21.799999237060546875</ele>
        <time>2026-03-30T11:12:10.000Z</time>
        <extensions>
          <ns3:TrackPointExtension>
            <ns3:atemp>26.0</ns3:atemp>
            <ns3:hr>99</ns3:hr>
          </ns3:TrackPointExtension>
        </extensions>
      </trkpt>
      <trkpt lat="31.10075307078659534454345703125" lon="121.40921247191727161407470703125">
        <ele>21.799999237060546875</ele>
        <time>2026-03-30T11:12:12.000Z</time>
        <extensions>
          <ns3:TrackPointExtension>
            <ns3:atemp>26.0</ns3:atemp>
            <ns3:hr>102</ns3:hr>
          </ns3:TrackPointExtension>
        </extensions>
      </trkpt>
      <trkpt lat="31.1007534898817539215087890625" lon="121.40916234813630580902099609375">
        <ele>21.200000762939453125</ele>
        <time>2026-03-30T11:12:16.000Z</time>
        <extensions>
          <ns3:TrackPointExtension>
            <ns3:atemp>26.0</ns3:atemp>
            <ns3:hr>105</ns3:hr>
          </ns3:TrackPointExtension>
        </extensions>
      </trkpt>
      <trkpt lat="31.10075541771948337554931640625" lon="121.4091463387012481689453125">
        <ele>21</ele>
        <time>2026-03-30T11:12:17.000Z</time>
        <extensions>
          <ns3:TrackPointExtension>
            <ns3:atemp>26.0</ns3:atemp>
            <ns3:hr>106</ns3:hr>
          </ns3:TrackPointExtension>
        </extensions>
      </trkpt>
      <trkpt lat="31.1007521487772464752197265625" lon="121.409066207706928253173828125">
        <ele>20.799999237060546875</ele>
        <time>2026-03-30T11:12:22.000Z</time>
        <extensions>
          <ns3:TrackPointExtension>
            <ns3:atemp>26.0</ns3:atemp>
            <ns3:hr>103</ns3:hr>
          </ns3:TrackPointExtension>
        </extensions>
      </trkpt>
      <trkpt lat="31.1007427610456943511962890625" lon="121.40903108753263950347900390625">
        <ele>20.799999237060546875</ele>
        <time>2026-03-30T11:12:25.000Z</time>
        <extensions>
          <ns3:TrackPointExtension>
            <ns3:atemp>26.0</ns3:atemp>
            <ns3:hr>100</ns3:hr>
          </ns3:TrackPointExtension>
        </extensions>
      </trkpt>
      <trkpt lat="31.10074259340763092041015625" lon="121.40903209336102008819580078125">
        <ele>20.799999237060546875</ele>
        <time>2026-03-30T11:12:26.000Z</time>
        <extensions>
          <ns3:TrackPointExtension>
            <ns3:atemp>26.0</ns3:atemp>
            <ns3:hr>100</ns3:hr>
          </ns3:TrackPointExtension>
        </extensions>
      </trkpt>
      <trkpt lat="31.10074125230312347412109375" lon="121.40903175808489322662353515625">
        <ele>21</ele>
        <time>2026-03-30T11:12:30.000Z</time>
        <extensions>
          <ns3:TrackPointExtension>
            <ns3:atemp>26.0</ns3:atemp>
            <ns3:hr>97</ns3:hr>
          </ns3:TrackPointExtension>
        </extensions>
      </trkpt>
      <trkpt lat="31.1007404141128063201904296875" lon="121.40903645195066928863525390625">
        <ele>21</ele>
        <time>2026-03-30T11:12:35.000Z</time>
        <extensions>
          <ns3:TrackPointExtension>
            <ns3:atemp>26.0</ns3:atemp>
            <ns3:hr>97</ns3:hr>
          </ns3:TrackPointExtension>
        </extensions>
      </trkpt>
      <trkpt lat="31.10074049793183803558349609375" lon="121.40903678722679615020751953125">
        <ele>20.799999237060546875</ele>
        <time>2026-03-30T11:12:46.000Z</time>
        <extensions>
          <ns3:TrackPointExtension>
            <ns3:atemp>26.0</ns3:atemp>
            <ns3:hr>94</ns3:hr>
          </ns3:TrackPointExtension>
        </extensions>
      </trkpt>
      <trkpt lat="31.10074083320796489715576171875" lon="121.40903678722679615020751953125">
        <ele>20.799999237060546875</ele>
        <time>2026-03-30T11:12:49.000Z</time>
        <extensions>
          <ns3:TrackPointExtension>
            <ns3:atemp>26.0</ns3:atemp>
            <ns3:hr>90</ns3:hr>
          </ns3:TrackPointExtension>
        </extensions>
      </trkpt>
      <trkpt lat="31.10073630698025226593017578125" lon="121.4090271480381488800048828125">
        <ele>20.799999237060546875</ele>
        <time>2026-03-30T11:12:53.000Z</time>
        <extensions>
          <ns3:TrackPointExtension>
            <ns3:atemp>26.0</ns3:atemp>
            <ns3:hr>88</ns3:hr>
          </ns3:TrackPointExtension>
        </extensions>
      </trkpt>
      <trkpt lat="31.10070294700562953948974609375" lon="121.40896269120275974273681640625">
        <ele>20.6000003814697265625</ele>
        <time>2026-03-30T11:12:56.000Z</time>
        <extensions>
          <ns3:TrackPointExtension>
            <ns3:atemp>26.0</ns3:atemp>
            <ns3:hr>90</ns3:hr>
          </ns3:TrackPointExtension>
        </extensions>
      </trkpt>
      <trkpt lat="31.10061326064169406890869140625" lon="121.40875540673732757568359375">
        <ele>21</ele>
        <time>2026-03-30T11:13:07.000Z</time>
        <extensions>
          <ns3:TrackPointExtension>
            <ns3:atemp>26.0</ns3:atemp>
            <ns3:hr>92</ns3:hr>
          </ns3:TrackPointExtension>
        </extensions>
      </trkpt>
      <trkpt lat="31.10058476217091083526611328125" lon="121.40867225825786590576171875">
        <ele>20.799999237060546875</ele>
        <time>2026-03-30T11:13:12.000Z</time>
        <extensions>
          <ns3:TrackPointExtension>
            <ns3:atemp>26.0</ns3:atemp>
            <ns3:hr>95</ns3:hr>
          </ns3:TrackPointExtension>
        </extensions>
      </trkpt>
      <trkpt lat="31.1005881987512111663818359375" lon="121.40866463072597980499267578125">
        <ele>20.799999237060546875</ele>
        <time>2026-03-30T11:13:13.000Z</time>
        <extensions>
          <ns3:TrackPointExtension>
            <ns3:atemp>26.0</ns3:atemp>
            <ns3:hr>95</ns3:hr>
          </ns3:TrackPointExtension>
        </extensions>
      </trkpt>
      <trkpt lat="31.10061158426105976104736328125" lon="121.40864501707255840301513671875">
        <ele>20.799999237060546875</ele>
        <time>2026-03-30T11:13:16.000Z</time>
        <extensions>
          <ns3:TrackPointExtension>
            <ns3:atemp>26.0</ns3:atemp>
            <ns3:hr>95</ns3:hr>
          </ns3:TrackPointExtension>
        </extensions>
      </trkpt>
      <trkpt lat="31.10062859952449798583984375" lon="121.4086181111633777618408203125">
        <ele>20.6000003814697265625</ele>
        <time>2026-03-30T11:13:18.000Z</time>
        <extensions>
          <ns3:TrackPointExtension>
            <ns3:atemp>26.0</ns3:atemp>
            <ns3:hr>94</ns3:hr>
          </ns3:TrackPointExtension>
        </extensions>
      </trkpt>
      <trkpt lat="31.10066958703100681304931640625" lon="121.40860126353800296783447265625">
        <ele>20.3999996185302734375</ele>
        <time>2026-03-30T11:13:21.000Z</time>
        <extensions>
          <ns3:TrackPointExtension>
            <ns3:atemp>26.0</ns3:atemp>
            <ns3:hr>91</ns3:hr>
          </ns3:TrackPointExtension>
        </extensions>
      </trkpt>
      <trkpt lat="31.10069104470312595367431640625" lon="121.4085855893790721893310546875">
        <ele>20.6000003814697265625</ele>
        <time>2026-03-30T11:13:23.000Z</time>
        <extensions>
          <ns3:TrackPointExtension>
            <ns3:atemp>26.0</ns3:atemp>
            <ns3:hr>91</ns3:hr>
          </ns3:TrackPointExtension>
        </extensions>
      </trkpt>
      <trkpt lat="31.10079196281731128692626953125" lon="121.4085346274077892303466796875">
        <ele>20.6000003814697265625</ele>
        <time>2026-03-30T11:13:33.000Z</time>
        <extensions>
          <ns3:TrackPointExtension>
            <ns3:atemp>26.0</ns3:atemp>
            <ns3:hr>91</ns3:hr>
          </ns3:TrackPointExtension>
        </extensions>
      </trkpt>
      <trkpt lat="31.10085600055754184722900390625" lon="121.40849682502448558807373046875">
        <ele>20.3999996185302734375</ele>
        <time>2026-03-30T11:13:40.000Z</time>
        <extensions>
          <ns3:TrackPointExtension>
            <ns3:atemp>26.0</ns3:atemp>
            <ns3:hr>92</ns3:hr>
          </ns3:TrackPointExtension>
        </extensions>
      </trkpt>
      <trkpt lat="31.1009559966623783111572265625" lon="121.408422477543354034423828125">
        <ele>20.200000762939453125</ele>
        <time>2026-03-30T11:13:48.000Z</time>
        <extensions>
          <ns3:TrackPointExtension>
            <ns3:atemp>26.0</ns3:atemp>
            <ns3:hr>93</ns3:hr>
          </ns3:TrackPointExtension>
        </extensions>
      </trkpt>
      <trkpt lat="31.10102766193449497222900390625" lon="121.4083700068295001983642578125">
        <ele>20.6000003814697265625</ele>
        <time>2026-03-30T11:13:56.000Z</time>
        <extensions>
          <ns3:TrackPointExtension>
            <ns3:atemp>26.0</ns3:atemp>
            <ns3:hr>94</ns3:hr>
          </ns3:TrackPointExtension>
        </extensions>
      </trkpt>
      <trkpt lat="31.10103839077055454254150390625" lon="121.4083416759967803955078125">
        <ele>21</ele>
        <time>2026-03-30T11:13:59.000Z</time>
        <extensions>
          <ns3:TrackPointExtension>
            <ns3:atemp>26.0</ns3:atemp>
            <ns3:hr>95</ns3:hr>
          </ns3:TrackPointExtension>
        </extensions>
      </trkpt>
      <trkpt lat="31.10103168524801731109619140625" lon="121.40830270014703273773193359375">
        <ele>21</ele>
        <time>2026-03-30T11:14:02.000Z</time>
        <extensions>
          <ns3:TrackPointExtension>
            <ns3:atemp>26.0</ns3:atemp>
            <ns3:hr>96</ns3:hr>
          </ns3:TrackPointExtension>
        </extensions>
      </trkpt>
      <trkpt lat="31.10102355480194091796875" lon="121.4082665741443634033203125">
        <ele>20.799999237060546875</ele>
        <time>2026-03-30T11:14:05.000Z</time>
        <extensions>
          <ns3:TrackPointExtension>
            <ns3:atemp>26.0</ns3:atemp>
            <ns3:hr>96</ns3:hr>
          </ns3:TrackPointExtension>
        </extensions>
      </trkpt>
      <trkpt lat="31.10100603662431240081787109375" lon="121.40815869905054569244384765625">
        <ele>20.6000003814697265625</ele>
        <time>2026-03-30T11:14:13.000Z</time>
        <extensions>
          <ns3:TrackPointExtension>
            <ns3:atemp>26.0</ns3:atemp>
            <ns3:hr>96</ns3:hr>
          </ns3:TrackPointExtension>
        </extensions>
      </trkpt>
      <trkpt lat="31.101005114614963531494140625" lon="121.40814512036740779876708984375">
        <ele>20.6000003814697265625</ele>
        <time>2026-03-30T11:14:14.000Z</time>
        <extensions>
          <ns3:TrackPointExtension>
            <ns3:atemp>26.0</ns3:atemp>
            <ns3:hr>96</ns3:hr>
          </ns3:TrackPointExtension>
        </extensions>
      </trkpt>
      <trkpt lat="31.1009927093982696533203125" lon="121.408074796199798583984375">
        <ele>20.6000003814697265625</ele>
        <time>2026-03-30T11:14:20.000Z</time>
        <extensions>
          <ns3:TrackPointExtension>
            <ns3:atemp>26.0</ns3:atemp>
            <ns3:hr>95</ns3:hr>
          </ns3:TrackPointExtension>
        </extensions>
      </trkpt>
      <trkpt lat="31.1009992472827434539794921875" lon="121.4080079086124897003173828125">
        <ele>20.6000003814697265625</ele>
        <time>2026-03-30T11:14:25.000Z</time>
        <extensions>
          <ns3:TrackPointExtension>
            <ns3:atemp>26.0</ns3:atemp>
            <ns3:hr>95</ns3:hr>
          </ns3:TrackPointExtension>
        </extensions>
      </trkpt>
      <trkpt lat="31.1009969003498554229736328125" lon="121.408010758459568023681640625">
        <ele>20.6000003814697265625</ele>
        <time>2026-03-30T11:14:27.000Z</time>
        <extensions>
          <ns3:TrackPointExtension>
            <ns3:atemp>26.0</ns3:atemp>
            <ns3:hr>95</ns3:hr>
          </ns3:TrackPointExtension>
        </extensions>
      </trkpt>
      <trkpt lat="31.10101609490811824798583984375" lon="121.4080149494111537933349609375">
        <ele>21</ele>
        <time>2026-03-30T11:14:31.000Z</time>
        <extensions>
          <ns3:TrackPointExtension>
            <ns3:atemp>26.0</ns3:atemp>
            <ns3:hr>95</ns3:hr>
          </ns3:TrackPointExtension>
        </extensions>
      </trkpt>
      <trkpt lat="31.10103805549442768096923828125" lon="121.40800145454704761505126953125">
        <ele>21.3999996185302734375</ele>
        <time>2026-03-30T11:14:36.000Z</time>
        <extensions>
          <ns3:TrackPointExtension>
            <ns3:atemp>26.0</ns3:atemp>
            <ns3:hr>95</ns3:hr>
          </ns3:TrackPointExtension>
        </extensions>
      </trkpt>
      <trkpt lat="31.10103570856153964996337890625" lon="121.40799927525222301483154296875">
        <ele>21.200000762939453125</ele>
        <time>2026-03-30T11:14:45.000Z</time>
        <extensions>
          <ns3:TrackPointExtension>
            <ns3:atemp>26.0</ns3:atemp>
            <ns3:hr>94</ns3:hr>
          </ns3:TrackPointExtension>
        </extensions>
      </trkpt>
      <trkpt lat="31.10103570856153964996337890625" lon="121.4080010354518890380859375">
        <ele>21.200000762939453125</ele>
        <time>2026-03-30T11:14:52.000Z</time>
        <extensions>
          <ns3:TrackPointExtension>
            <ns3:atemp>26.0</ns3:atemp>
            <ns3:hr>97</ns3:hr>
          </ns3:TrackPointExtension>
        </extensions>
      </trkpt>
      <trkpt lat="31.1010364629328250885009765625" lon="121.40800111927092075347900390625">
        <ele>21.3999996185302734375</ele>
        <time>2026-03-30T11:15:00.000Z</time>
        <extensions>
          <ns3:TrackPointExtension>
            <ns3:atemp>26.0</ns3:atemp>
            <ns3:hr>95</ns3:hr>
          </ns3:TrackPointExtension>
        </extensions>
      </trkpt>
      <trkpt lat="31.1010371334850788116455078125" lon="121.4080015383660793304443359375">
        <ele>21.3999996185302734375</ele>
        <time>2026-03-30T11:15:03.000Z</time>
        <extensions>
          <ns3:TrackPointExtension>
            <ns3:atemp>26.0</ns3:atemp>
            <ns3:hr>91</ns3:hr>
          </ns3:TrackPointExtension>
        </extensions>
      </trkpt>
      <trkpt lat="31.1010374687612056732177734375" lon="121.40800170600414276123046875">
        <ele>21.3999996185302734375</ele>
        <time>2026-03-30T11:15:06.000Z</time>
        <extensions>
          <ns3:TrackPointExtension>
            <ns3:atemp>26.0</ns3:atemp>
            <ns3:hr>88</ns3:hr>
          </ns3:TrackPointExtension>
        </extensions>
      </trkpt>
      <trkpt lat="31.1010388098657131195068359375" lon="121.40800212509930133819580078125">
        <ele>21.6000003814697265625</ele>
        <time>2026-03-30T11:15:09.000Z</time>
        <extensions>
          <ns3:TrackPointExtension>
            <ns3:atemp>26.0</ns3:atemp>
            <ns3:hr>88</ns3:hr>
          </ns3:TrackPointExtension>
        </extensions>
      </trkpt>
      <trkpt lat="31.1010411567986011505126953125" lon="121.408004052937030792236328125">
        <ele>21.6000003814697265625</ele>
        <time>2026-03-30T11:15:17.000Z</time>
        <extensions>
          <ns3:TrackPointExtension>
            <ns3:atemp>27.0</ns3:atemp>
            <ns3:hr>85</ns3:hr>
          </ns3:TrackPointExtension>
        </extensions>
      </trkpt>
      <trkpt lat="31.1010411567986011505126953125" lon="121.4080062322318553924560546875">
        <ele>21.799999237060546875</ele>
        <time>2026-03-30T11:15:22.000Z</time>
        <extensions>
          <ns3:TrackPointExtension>
            <ns3:atemp>27.0</ns3:atemp>
            <ns3:hr>82</ns3:hr>
          </ns3:TrackPointExtension>
        </extensions>
      </trkpt>
      <trkpt lat="31.1010411567986011505126953125" lon="121.40800866298377513885498046875">
        <ele>21.799999237060546875</ele>
        <time>2026-03-30T11:15:24.000Z</time>
        <extensions>
          <ns3:TrackPointExtension>
            <ns3:atemp>27.0</ns3:atemp>
            <ns3:hr>79</ns3:hr>
          </ns3:TrackPointExtension>
        </extensions>
      </trkpt>
      <trkpt lat="31.1010411567986011505126953125" lon="121.40801218338310718536376953125">
        <ele>21.799999237060546875</ele>
        <time>2026-03-30T11:15:26.000Z</time>
        <extensions>
          <ns3:TrackPointExtension>
            <ns3:atemp>27.0</ns3:atemp>
            <ns3:hr>76</ns3:hr>
          </ns3:TrackPointExtension>
        </extensions>
      </trkpt>
      <trkpt lat="31.10103897750377655029296875" lon="121.408022157847881317138671875">
        <ele>22</ele>
        <time>2026-03-30T11:15:33.000Z</time>
        <extensions>
          <ns3:TrackPointExtension>
            <ns3:atemp>27.0</ns3:atemp>
            <ns3:hr>74</ns3:hr>
          </ns3:TrackPointExtension>
        </extensions>
      </trkpt>
      <trkpt lat="31.101025901734828948974609375" lon="121.40809516422450542449951171875">
        <ele>22.200000762939453125</ele>
        <time>2026-03-30T11:15:58.000Z</time>
        <extensions>
          <ns3:TrackPointExtension>
            <ns3:atemp>27.0</ns3:atemp>
            <ns3:hr>75</ns3:hr>
          </ns3:TrackPointExtension>
        </extensions>
      </trkpt>
      <trkpt lat="31.10102782957255840301513671875" lon="121.40812584199011325836181640625">
        <ele>22.3999996185302734375</ele>
        <time>2026-03-30T11:16:10.000Z</time>
        <extensions>
          <ns3:TrackPointExtension>
            <ns3:atemp>28.0</ns3:atemp>
            <ns3:hr>72</ns3:hr>
          </ns3:TrackPointExtension>
        </extensions>
      </trkpt>
      <trkpt lat="31.101027913391590118408203125" lon="121.40813036821782588958740234375">
        <ele>22.3999996185302734375</ele>
        <time>2026-03-30T11:16:14.000Z</time>
        <extensions>
          <ns3:TrackPointExtension>
            <ns3:atemp>28.0</ns3:atemp>
            <ns3:hr>69</ns3:hr>
          </ns3:TrackPointExtension>
        </extensions>
      </trkpt>
      <trkpt lat="31.101027913391590118408203125" lon="121.408144868910312652587890625">
        <ele>22.3999996185302734375</ele>
        <time>2026-03-30T11:16:18.000Z</time>
        <extensions>
          <ns3:TrackPointExtension>
            <ns3:atemp>28.0</ns3:atemp>
            <ns3:hr>68</ns3:hr>
          </ns3:TrackPointExtension>
        </extensions>
      </trkpt>
    </trkseg>
  </trk>
</gpx>
