<gpx xmlns:ns3="http://www.garmin.com/xmlschemas/TrackPointExtension/v1" xmlns="http://www.topografix.com/GPX/1/1" xmlns:xsi="http://www.w3.org/2001/XMLSchema-instance" xmlns:ns2="http://www.garmin.com/xmlschemas/GpxExtensions/v3" creator="Garmin Connect" version="1.1" xsi:schemaLocation="http://www.topografix.com/GPX/1/1 http://www.topografix.com/GPX/11.xsd">
  <extensions>
<distance>690.73</distance>
<average_hr>95.0</average_hr>
<average_speed>0.20200000703334808</average_speed>
<start_time>2026-04-03T00:35:32+00:00</start_time>
<end_time>2026-04-03T01:32:23.237000+00:00</end_time>
<moving_time>463.0</moving_time>
<elapsed_time>3411.237</elapsed_time>
</extensions>
<metadata>
    <link href="connect.garmin.com">
      <text>Garmin Connect</text>
    </link>
    <time>2026-04-03T00:35:32.000Z</time>
  </metadata>
  <trk>
    <name>浦东新区 Commuting</name>
    <type>other</type>
    <trkseg>
      <trkpt lat="31.15554951131343841552734375" lon="121.4752857573330402374267578125">
        <ele>4.80000019073486328125</ele>
        <time>2026-04-03T01:19:18.000Z</time>
        <extensions>
          <ns3:TrackPointExtension>
            <ns3:atemp>28.0</ns3:atemp>
            <ns3:hr>111</ns3:hr>
          </ns3:TrackPointExtension>
        </extensions>
      </trkpt>
      <trkpt lat="31.155574657022953033447265625" lon="121.47530361078679561614990234375">
        <ele>5</ele>
        <time>2026-04-03T01:19:21.000Z</time>
        <extensions>
          <ns3:TrackPointExtension>
            <ns3:atemp>28.0</ns3:atemp>
            <ns3:hr>117</ns3:hr>
          </ns3:TrackPointExtension>
        </extensions>
      </trkpt>
      <trkpt lat="31.155571974813938140869140625" lon="121.47530210204422473907470703125">
        <ele>5</ele>
        <time>2026-04-03T01:19:22.000Z</time>
        <extensions>
          <ns3:TrackPointExtension>
            <ns3:atemp>28.0</ns3:atemp>
            <ns3:hr>116</ns3:hr>
          </ns3:TrackPointExtension>
        </extensions>
      </trkpt>
      <trkpt lat="31.15555579774081707000732421875" lon="121.47525717504322528839111328125">
        <ele>5.80000019073486328125</ele>
        <time>2026-04-03T01:19:27.000Z</time>
        <extensions>
          <ns3:TrackPointExtension>
            <ns3:atemp>28.0</ns3:atemp>
            <ns3:hr>119</ns3:hr>
          </ns3:TrackPointExtension>
        </extensions>
      </trkpt>
      <trkpt lat="31.15555311553180217742919921875" lon="121.47523286752402782440185546875">
        <ele>7</ele>
        <time>2026-04-03T01:19:31.000Z</time>
        <extensions>
          <ns3:TrackPointExtension>
            <ns3:atemp>28.0</ns3:atemp>
            <ns3:hr>118</ns3:hr>
          </ns3:TrackPointExtension>
        </extensions>
      </trkpt>
      <trkpt lat="31.15555982105433940887451171875" lon="121.4751938916742801666259765625">
        <ele>8.19999980926513671875</ele>
        <time>2026-04-03T01:19:35.000Z</time>
        <extensions>
          <ns3:TrackPointExtension>
            <ns3:atemp>28.0</ns3:atemp>
            <ns3:hr>115</ns3:hr>
          </ns3:TrackPointExtension>
        </extensions>
      </trkpt>
      <trkpt lat="31.15556166507303714752197265625" lon="121.47517897188663482666015625">
        <ele>8.80000019073486328125</ele>
        <time>2026-04-03T01:19:37.000Z</time>
        <extensions>
          <ns3:TrackPointExtension>
            <ns3:atemp>28.0</ns3:atemp>
            <ns3:hr>114</ns3:hr>
          </ns3:TrackPointExtension>
        </extensions>
      </trkpt>
      <trkpt lat="31.15556158125400543212890625" lon="121.47517302073538303375244140625">
        <ele>9.19999980926513671875</ele>
        <time>2026-04-03T01:19:38.000Z</time>
        <extensions>
          <ns3:TrackPointExtension>
            <ns3:atemp>28.0</ns3:atemp>
            <ns3:hr>114</ns3:hr>
          </ns3:TrackPointExtension>
        </extensions>
      </trkpt>
      <trkpt lat="31.155559904873371124267578125" lon="121.47514703683555126190185546875">
        <ele>10.3999996185302734375</ele>
        <time>2026-04-03T01:19:41.000Z</time>
        <extensions>
          <ns3:TrackPointExtension>
            <ns3:atemp>28.0</ns3:atemp>
            <ns3:hr>112</ns3:hr>
          </ns3:TrackPointExtension>
        </extensions>
      </trkpt>
      <trkpt lat="31.1555594019591808319091796875" lon="121.47511904127895832061767578125">
        <ele>11.3999996185302734375</ele>
        <time>2026-04-03T01:19:43.000Z</time>
        <extensions>
          <ns3:TrackPointExtension>
            <ns3:atemp>28.0</ns3:atemp>
            <ns3:hr>111</ns3:hr>
          </ns3:TrackPointExtension>
        </extensions>
      </trkpt>
      <trkpt lat="31.15556317381560802459716796875" lon="121.47510328330099582672119140625">
        <ele>11.6000003814697265625</ele>
        <time>2026-04-03T01:19:44.000Z</time>
        <extensions>
          <ns3:TrackPointExtension>
            <ns3:atemp>27.0</ns3:atemp>
            <ns3:hr>110</ns3:hr>
          </ns3:TrackPointExtension>
        </extensions>
      </trkpt>
      <trkpt lat="31.155577339231967926025390625" lon="121.47505684755742549896240234375">
        <ele>11.6000003814697265625</ele>
        <time>2026-04-03T01:19:47.000Z</time>
        <extensions>
          <ns3:TrackPointExtension>
            <ns3:atemp>27.0</ns3:atemp>
            <ns3:hr>109</ns3:hr>
          </ns3:TrackPointExtension>
        </extensions>
      </trkpt>
      <trkpt lat="31.15561028011143207550048828125" lon="121.47495022974908351898193359375">
        <ele>11.19999980926513671875</ele>
        <time>2026-04-03T01:19:54.000Z</time>
        <extensions>
          <ns3:TrackPointExtension>
            <ns3:atemp>27.0</ns3:atemp>
            <ns3:hr>110</ns3:hr>
          </ns3:TrackPointExtension>
        </extensions>
      </trkpt>
      <trkpt lat="31.15562058985233306884765625" lon="121.4749129302799701690673828125">
        <ele>11</ele>
        <time>2026-04-03T01:19:56.000Z</time>
        <extensions>
          <ns3:TrackPointExtension>
            <ns3:atemp>27.0</ns3:atemp>
            <ns3:hr>107</ns3:hr>
          </ns3:TrackPointExtension>
        </extensions>
      </trkpt>
      <trkpt lat="31.1556469090282917022705078125" lon="121.47484914399683475494384765625">
        <ele>10.80000019073486328125</ele>
        <time>2026-04-03T01:20:00.000Z</time>
        <extensions>
          <ns3:TrackPointExtension>
            <ns3:atemp>27.0</ns3:atemp>
            <ns3:hr>110</ns3:hr>
          </ns3:TrackPointExtension>
        </extensions>
      </trkpt>
      <trkpt lat="31.1556536145508289337158203125" lon="121.47483070380985736846923828125">
        <ele>10.80000019073486328125</ele>
        <time>2026-04-03T01:20:01.000Z</time>
        <extensions>
          <ns3:TrackPointExtension>
            <ns3:atemp>27.0</ns3:atemp>
            <ns3:hr>110</ns3:hr>
          </ns3:TrackPointExtension>
        </extensions>
      </trkpt>
      <trkpt lat="31.15568471141159534454345703125" lon="121.47473037242889404296875">
        <ele>10.6000003814697265625</ele>
        <time>2026-04-03T01:20:07.000Z</time>
        <extensions>
          <ns3:TrackPointExtension>
            <ns3:atemp>27.0</ns3:atemp>
            <ns3:hr>110</ns3:hr>
          </ns3:TrackPointExtension>
        </extensions>
      </trkpt>
      <trkpt lat="31.155702061951160430908203125" lon="121.47469826973974704742431640625">
        <ele>10.6000003814697265625</ele>
        <time>2026-04-03T01:20:09.000Z</time>
        <extensions>
          <ns3:TrackPointExtension>
            <ns3:atemp>27.0</ns3:atemp>
            <ns3:hr>112</ns3:hr>
          </ns3:TrackPointExtension>
        </extensions>
      </trkpt>
      <trkpt lat="31.1557287164032459259033203125" lon="121.47465870715677738189697265625">
        <ele>10.3999996185302734375</ele>
        <time>2026-04-03T01:20:12.000Z</time>
        <extensions>
          <ns3:TrackPointExtension>
            <ns3:atemp>27.0</ns3:atemp>
            <ns3:hr>115</ns3:hr>
          </ns3:TrackPointExtension>
        </extensions>
      </trkpt>
      <trkpt lat="31.15576601587235927581787109375" lon="121.47459282539784908294677734375">
        <ele>10.3999996185302734375</ele>
        <time>2026-04-03T01:20:17.000Z</time>
        <extensions>
          <ns3:TrackPointExtension>
            <ns3:atemp>27.0</ns3:atemp>
            <ns3:hr>112</ns3:hr>
          </ns3:TrackPointExtension>
        </extensions>
      </trkpt>
      <trkpt lat="31.15577037446200847625732421875" lon="121.47458159364759922027587890625">
        <ele>10.3999996185302734375</ele>
        <time>2026-04-03T01:20:18.000Z</time>
        <extensions>
          <ns3:TrackPointExtension>
            <ns3:atemp>27.0</ns3:atemp>
            <ns3:hr>114</ns3:hr>
          </ns3:TrackPointExtension>
        </extensions>
      </trkpt>
      <trkpt lat="31.155807338654994964599609375" lon="121.47446407936513423919677734375">
        <ele>10.19999980926513671875</ele>
        <time>2026-04-03T01:20:28.000Z</time>
        <extensions>
          <ns3:TrackPointExtension>
            <ns3:atemp>27.0</ns3:atemp>
            <ns3:hr>113</ns3:hr>
          </ns3:TrackPointExtension>
        </extensions>
      </trkpt>
      <trkpt lat="31.155838184058666229248046875" lon="121.47441764362156391143798828125">
        <ele>10</ele>
        <time>2026-04-03T01:20:32.000Z</time>
        <extensions>
          <ns3:TrackPointExtension>
            <ns3:atemp>27.0</ns3:atemp>
            <ns3:hr>117</ns3:hr>
          </ns3:TrackPointExtension>
        </extensions>
      </trkpt>
      <trkpt lat="31.1558604799211025238037109375" lon="121.47436894476413726806640625">
        <ele>10</ele>
        <time>2026-04-03T01:20:36.000Z</time>
        <extensions>
          <ns3:TrackPointExtension>
            <ns3:atemp>27.0</ns3:atemp>
            <ns3:hr>119</ns3:hr>
          </ns3:TrackPointExtension>
        </extensions>
      </trkpt>
      <trkpt lat="31.15588168613612651824951171875" lon="121.47424464114010334014892578125">
        <ele>10</ele>
        <time>2026-04-03T01:20:43.000Z</time>
        <extensions>
          <ns3:TrackPointExtension>
            <ns3:atemp>27.0</ns3:atemp>
            <ns3:hr>121</ns3:hr>
          </ns3:TrackPointExtension>
        </extensions>
      </trkpt>
      <trkpt lat="31.15591085515916347503662109375" lon="121.47414439357817173004150390625">
        <ele>10</ele>
        <time>2026-04-03T01:20:51.000Z</time>
        <extensions>
          <ns3:TrackPointExtension>
            <ns3:atemp>27.0</ns3:atemp>
            <ns3:hr>123</ns3:hr>
          </ns3:TrackPointExtension>
        </extensions>
      </trkpt>
      <trkpt lat="31.15593901835381984710693359375" lon="121.47404976189136505126953125">
        <ele>10.19999980926513671875</ele>
        <time>2026-04-03T01:20:58.000Z</time>
        <extensions>
          <ns3:TrackPointExtension>
            <ns3:atemp>27.0</ns3:atemp>
            <ns3:hr>125</ns3:hr>
          </ns3:TrackPointExtension>
        </extensions>
      </trkpt>
      <trkpt lat="31.1559721268713474273681640625" lon="121.47394272498786449432373046875">
        <ele>10.19999980926513671875</ele>
        <time>2026-04-03T01:21:05.000Z</time>
        <extensions>
          <ns3:TrackPointExtension>
            <ns3:atemp>27.0</ns3:atemp>
            <ns3:hr>128</ns3:hr>
          </ns3:TrackPointExtension>
        </extensions>
      </trkpt>
      <trkpt lat="31.15603004582226276397705078125" lon="121.4738492667675018310546875">
        <ele>10.19999980926513671875</ele>
        <time>2026-04-03T01:21:12.000Z</time>
        <extensions>
          <ns3:TrackPointExtension>
            <ns3:atemp>27.0</ns3:atemp>
            <ns3:hr>127</ns3:hr>
          </ns3:TrackPointExtension>
        </extensions>
      </trkpt>
      <trkpt lat="31.1560938321053981781005859375" lon="121.473728902637958526611328125">
        <ele>10</ele>
        <time>2026-04-03T01:21:21.000Z</time>
        <extensions>
          <ns3:TrackPointExtension>
            <ns3:atemp>27.0</ns3:atemp>
            <ns3:hr>126</ns3:hr>
          </ns3:TrackPointExtension>
        </extensions>
      </trkpt>
      <trkpt lat="31.15610330365598201751708984375" lon="121.47371239028871059417724609375">
        <ele>10</ele>
        <time>2026-04-03T01:21:22.000Z</time>
        <extensions>
          <ns3:TrackPointExtension>
            <ns3:atemp>27.0</ns3:atemp>
            <ns3:hr>125</ns3:hr>
          </ns3:TrackPointExtension>
        </extensions>
      </trkpt>
      <trkpt lat="31.15616667084395885467529296875" lon="121.473619937896728515625">
        <ele>10.19999980926513671875</ele>
        <time>2026-04-03T01:21:29.000Z</time>
        <extensions>
          <ns3:TrackPointExtension>
            <ns3:atemp>27.0</ns3:atemp>
            <ns3:hr>125</ns3:hr>
          </ns3:TrackPointExtension>
        </extensions>
      </trkpt>
      <trkpt lat="31.15626339800655841827392578125" lon="121.47349144332110881805419921875">
        <ele>10.3999996185302734375</ele>
        <time>2026-04-03T01:21:39.000Z</time>
        <extensions>
          <ns3:TrackPointExtension>
            <ns3:atemp>27.0</ns3:atemp>
            <ns3:hr>126</ns3:hr>
          </ns3:TrackPointExtension>
        </extensions>
      </trkpt>
      <trkpt lat="31.156317293643951416015625" lon="121.4733840711414813995361328125">
        <ele>10.19999980926513671875</ele>
        <time>2026-04-03T01:21:47.000Z</time>
        <extensions>
          <ns3:TrackPointExtension>
            <ns3:atemp>27.0</ns3:atemp>
            <ns3:hr>126</ns3:hr>
          </ns3:TrackPointExtension>
        </extensions>
      </trkpt>
      <trkpt lat="31.156340427696704864501953125" lon="121.47335079498589038848876953125">
        <ele>10.19999980926513671875</ele>
        <time>2026-04-03T01:21:50.000Z</time>
        <extensions>
          <ns3:TrackPointExtension>
            <ns3:atemp>27.0</ns3:atemp>
            <ns3:hr>126</ns3:hr>
          </ns3:TrackPointExtension>
        </extensions>
      </trkpt>
      <trkpt lat="31.1563553474843502044677734375" lon="121.4732764475047588348388671875">
        <ele>10</ele>
        <time>2026-04-03T01:21:54.000Z</time>
        <extensions>
          <ns3:TrackPointExtension>
            <ns3:atemp>27.0</ns3:atemp>
            <ns3:hr>126</ns3:hr>
          </ns3:TrackPointExtension>
        </extensions>
      </trkpt>
      <trkpt lat="31.15637185983359813690185546875" lon="121.47314812056720256805419921875">
        <ele>10</ele>
        <time>2026-04-03T01:22:02.000Z</time>
        <extensions>
          <ns3:TrackPointExtension>
            <ns3:atemp>26.0</ns3:atemp>
            <ns3:hr>126</ns3:hr>
          </ns3:TrackPointExtension>
        </extensions>
      </trkpt>
      <trkpt lat="31.1564136855304241180419921875" lon="121.47300093434751033782958984375">
        <ele>10</ele>
        <time>2026-04-03T01:22:12.000Z</time>
        <extensions>
          <ns3:TrackPointExtension>
            <ns3:atemp>27.0</ns3:atemp>
            <ns3:hr>124</ns3:hr>
          </ns3:TrackPointExtension>
        </extensions>
      </trkpt>
      <trkpt lat="31.15645366720855236053466796875" lon="121.4729012735188007354736328125">
        <ele>10</ele>
        <time>2026-04-03T01:22:19.000Z</time>
        <extensions>
          <ns3:TrackPointExtension>
            <ns3:atemp>26.0</ns3:atemp>
            <ns3:hr>123</ns3:hr>
          </ns3:TrackPointExtension>
        </extensions>
      </trkpt>
      <trkpt lat="31.1564951576292514801025390625" lon="121.4727691747248172760009765625">
        <ele>10</ele>
        <time>2026-04-03T01:22:28.000Z</time>
        <extensions>
          <ns3:TrackPointExtension>
            <ns3:atemp>26.0</ns3:atemp>
            <ns3:hr>120</ns3:hr>
          </ns3:TrackPointExtension>
        </extensions>
      </trkpt>
      <trkpt lat="31.1565048806369304656982421875" lon="121.47273740731179714202880859375">
        <ele>10</ele>
        <time>2026-04-03T01:22:30.000Z</time>
        <extensions>
          <ns3:TrackPointExtension>
            <ns3:atemp>26.0</ns3:atemp>
            <ns3:hr>123</ns3:hr>
          </ns3:TrackPointExtension>
        </extensions>
      </trkpt>
      <trkpt lat="31.15652021951973438262939453125" lon="121.472711674869060516357421875">
        <ele>10</ele>
        <time>2026-04-03T01:22:32.000Z</time>
        <extensions>
          <ns3:TrackPointExtension>
            <ns3:atemp>26.0</ns3:atemp>
            <ns3:hr>120</ns3:hr>
          </ns3:TrackPointExtension>
        </extensions>
      </trkpt>
      <trkpt lat="31.156537570059299468994140625" lon="121.4726374112069606781005859375">
        <ele>10.3999996185302734375</ele>
        <time>2026-04-03T01:22:37.000Z</time>
        <extensions>
          <ns3:TrackPointExtension>
            <ns3:atemp>26.0</ns3:atemp>
            <ns3:hr>119</ns3:hr>
          </ns3:TrackPointExtension>
        </extensions>
      </trkpt>
      <trkpt lat="31.15655492059886455535888671875" lon="121.472573541104793548583984375">
        <ele>10.3999996185302734375</ele>
        <time>2026-04-03T01:22:41.000Z</time>
        <extensions>
          <ns3:TrackPointExtension>
            <ns3:atemp>26.0</ns3:atemp>
            <ns3:hr>116</ns3:hr>
          </ns3:TrackPointExtension>
        </extensions>
      </trkpt>
      <trkpt lat="31.15656078793108463287353515625" lon="121.47255836986005306243896484375">
        <ele>10.3999996185302734375</ele>
        <time>2026-04-03T01:22:42.000Z</time>
        <extensions>
          <ns3:TrackPointExtension>
            <ns3:atemp>26.0</ns3:atemp>
            <ns3:hr>113</ns3:hr>
          </ns3:TrackPointExtension>
        </extensions>
      </trkpt>
      <trkpt lat="31.156575791537761688232421875" lon="121.4725079946219921112060546875">
        <ele>10.6000003814697265625</ele>
        <time>2026-04-03T01:22:45.000Z</time>
        <extensions>
          <ns3:TrackPointExtension>
            <ns3:atemp>26.0</ns3:atemp>
            <ns3:hr>110</ns3:hr>
          </ns3:TrackPointExtension>
        </extensions>
      </trkpt>
      <trkpt lat="31.15659247152507305145263671875" lon="121.47247538901865482330322265625">
        <ele>10.6000003814697265625</ele>
        <time>2026-04-03T01:22:48.000Z</time>
        <extensions>
          <ns3:TrackPointExtension>
            <ns3:atemp>26.0</ns3:atemp>
            <ns3:hr>109</ns3:hr>
          </ns3:TrackPointExtension>
        </extensions>
      </trkpt>
      <trkpt lat="31.156623400747776031494140625" lon="121.472350917756557464599609375">
        <ele>10.6000003814697265625</ele>
        <time>2026-04-03T01:22:56.000Z</time>
        <extensions>
          <ns3:TrackPointExtension>
            <ns3:atemp>26.0</ns3:atemp>
            <ns3:hr>110</ns3:hr>
          </ns3:TrackPointExtension>
        </extensions>
      </trkpt>
      <trkpt lat="31.15662566386163234710693359375" lon="121.4723383449018001556396484375">
        <ele>10.6000003814697265625</ele>
        <time>2026-04-03T01:22:57.000Z</time>
        <extensions>
          <ns3:TrackPointExtension>
            <ns3:atemp>26.0</ns3:atemp>
            <ns3:hr>110</ns3:hr>
          </ns3:TrackPointExtension>
        </extensions>
      </trkpt>
      <trkpt lat="31.15667260251939296722412109375" lon="121.47224522195756435394287109375">
        <ele>10.3999996185302734375</ele>
        <time>2026-04-03T01:23:05.000Z</time>
        <extensions>
          <ns3:TrackPointExtension>
            <ns3:atemp>26.0</ns3:atemp>
            <ns3:hr>110</ns3:hr>
          </ns3:TrackPointExtension>
        </extensions>
      </trkpt>
      <trkpt lat="31.15672825835645198822021484375" lon="121.47211345843970775604248046875">
        <ele>10.3999996185302734375</ele>
        <time>2026-04-03T01:23:15.000Z</time>
        <extensions>
          <ns3:TrackPointExtension>
            <ns3:atemp>26.0</ns3:atemp>
            <ns3:hr>109</ns3:hr>
          </ns3:TrackPointExtension>
        </extensions>
      </trkpt>
      <trkpt lat="31.1567720957100391387939453125" lon="121.4719475805759429931640625">
        <ele>10.3999996185302734375</ele>
        <time>2026-04-03T01:23:25.000Z</time>
        <extensions>
          <ns3:TrackPointExtension>
            <ns3:atemp>26.0</ns3:atemp>
            <ns3:hr>110</ns3:hr>
          </ns3:TrackPointExtension>
        </extensions>
      </trkpt>
      <trkpt lat="31.15678860805928707122802734375" lon="121.4718067646026611328125">
        <ele>10.3999996185302734375</ele>
        <time>2026-04-03T01:23:33.000Z</time>
        <extensions>
          <ns3:TrackPointExtension>
            <ns3:atemp>26.0</ns3:atemp>
            <ns3:hr>110</ns3:hr>
          </ns3:TrackPointExtension>
        </extensions>
      </trkpt>
      <trkpt lat="31.1568274162709712982177734375" lon="121.47172755561769008636474609375">
        <ele>10.6000003814697265625</ele>
        <time>2026-04-03T01:23:39.000Z</time>
        <extensions>
          <ns3:TrackPointExtension>
            <ns3:atemp>26.0</ns3:atemp>
            <ns3:hr>107</ns3:hr>
          </ns3:TrackPointExtension>
        </extensions>
      </trkpt>
      <trkpt lat="31.15684594027698040008544921875" lon="121.47168229334056377410888671875">
        <ele>10.6000003814697265625</ele>
        <time>2026-04-03T01:23:42.000Z</time>
        <extensions>
          <ns3:TrackPointExtension>
            <ns3:atemp>26.0</ns3:atemp>
            <ns3:hr>106</ns3:hr>
          </ns3:TrackPointExtension>
        </extensions>
      </trkpt>
      <trkpt lat="31.15691249258816242218017578125" lon="121.47154198028147220611572265625">
        <ele>10.6000003814697265625</ele>
        <time>2026-04-03T01:23:52.000Z</time>
        <extensions>
          <ns3:TrackPointExtension>
            <ns3:atemp>26.0</ns3:atemp>
            <ns3:hr>104</ns3:hr>
          </ns3:TrackPointExtension>
        </extensions>
      </trkpt>
      <trkpt lat="31.15695943124592304229736328125" lon="121.47145799361169338226318359375">
        <ele>10.3999996185302734375</ele>
        <time>2026-04-03T01:23:59.000Z</time>
        <extensions>
          <ns3:TrackPointExtension>
            <ns3:atemp>26.0</ns3:atemp>
            <ns3:hr>106</ns3:hr>
          </ns3:TrackPointExtension>
        </extensions>
      </trkpt>
      <trkpt lat="31.15696881897747516632080078125" lon="121.47143921814858913421630859375">
        <ele>10.3999996185302734375</ele>
        <time>2026-04-03T01:24:01.000Z</time>
        <extensions>
          <ns3:TrackPointExtension>
            <ns3:atemp>26.0</ns3:atemp>
            <ns3:hr>106</ns3:hr>
          </ns3:TrackPointExtension>
        </extensions>
      </trkpt>
      <trkpt lat="31.15697787143290042877197265625" lon="121.47137853316962718963623046875">
        <ele>10.3999996185302734375</ele>
        <time>2026-04-03T01:24:06.000Z</time>
        <extensions>
          <ns3:TrackPointExtension>
            <ns3:atemp>26.0</ns3:atemp>
            <ns3:hr>106</ns3:hr>
          </ns3:TrackPointExtension>
        </extensions>
      </trkpt>
      <trkpt lat="31.1569705791771411895751953125" lon="121.4713735878467559814453125">
        <ele>10.3999996185302734375</ele>
        <time>2026-04-03T01:24:07.000Z</time>
        <extensions>
          <ns3:TrackPointExtension>
            <ns3:atemp>26.0</ns3:atemp>
            <ns3:hr>107</ns3:hr>
          </ns3:TrackPointExtension>
        </extensions>
      </trkpt>
      <trkpt lat="31.156945936381816864013671875" lon="121.47137694060802459716796875">
        <ele>10.3999996185302734375</ele>
        <time>2026-04-03T01:24:09.000Z</time>
        <extensions>
          <ns3:TrackPointExtension>
            <ns3:atemp>26.0</ns3:atemp>
            <ns3:hr>107</ns3:hr>
          </ns3:TrackPointExtension>
        </extensions>
      </trkpt>
      <trkpt lat="31.15692137740552425384521484375" lon="121.47138138301670551300048828125">
        <ele>10.19999980926513671875</ele>
        <time>2026-04-03T01:24:11.000Z</time>
        <extensions>
          <ns3:TrackPointExtension>
            <ns3:atemp>26.0</ns3:atemp>
            <ns3:hr>107</ns3:hr>
          </ns3:TrackPointExtension>
        </extensions>
      </trkpt>
      <trkpt lat="31.15680922754108905792236328125" lon="121.47140082903206348419189453125">
        <ele>10.19999980926513671875</ele>
        <time>2026-04-03T01:24:18.000Z</time>
        <extensions>
          <ns3:TrackPointExtension>
            <ns3:atemp>26.0</ns3:atemp>
            <ns3:hr>109</ns3:hr>
          </ns3:TrackPointExtension>
        </extensions>
      </trkpt>
      <trkpt lat="31.156633794307708740234375" lon="121.4713590033352375030517578125">
        <ele>10.3999996185302734375</ele>
        <time>2026-04-03T01:24:30.000Z</time>
        <extensions>
          <ns3:TrackPointExtension>
            <ns3:atemp>26.0</ns3:atemp>
            <ns3:hr>109</ns3:hr>
          </ns3:TrackPointExtension>
        </extensions>
      </trkpt>
      <trkpt lat="31.1566225625574588775634765625" lon="121.4713522978127002716064453125">
        <ele>10.3999996185302734375</ele>
        <time>2026-04-03T01:24:31.000Z</time>
        <extensions>
          <ns3:TrackPointExtension>
            <ns3:atemp>26.0</ns3:atemp>
            <ns3:hr>109</ns3:hr>
          </ns3:TrackPointExtension>
        </extensions>
      </trkpt>
      <trkpt lat="31.156516112387180328369140625" lon="121.47131524980068206787109375">
        <ele>10.3999996185302734375</ele>
        <time>2026-04-03T01:24:40.000Z</time>
        <extensions>
          <ns3:TrackPointExtension>
            <ns3:atemp>26.0</ns3:atemp>
            <ns3:hr>111</ns3:hr>
          </ns3:TrackPointExtension>
        </extensions>
      </trkpt>
      <trkpt lat="31.1563694290816783905029296875" lon="121.47128415293991565704345703125">
        <ele>10.6000003814697265625</ele>
        <time>2026-04-03T01:24:50.000Z</time>
        <extensions>
          <ns3:TrackPointExtension>
            <ns3:atemp>25.0</ns3:atemp>
            <ns3:hr>111</ns3:hr>
          </ns3:TrackPointExtension>
        </extensions>
      </trkpt>
      <trkpt lat="31.1562876217067241668701171875" lon="121.4712584204971790313720703125">
        <ele>10.3999996185302734375</ele>
        <time>2026-04-03T01:24:56.000Z</time>
        <extensions>
          <ns3:TrackPointExtension>
            <ns3:atemp>25.0</ns3:atemp>
            <ns3:hr>114</ns3:hr>
          </ns3:TrackPointExtension>
        </extensions>
      </trkpt>
      <trkpt lat="31.15626792423427104949951171875" lon="121.47125381045043468475341796875">
        <ele>10.3999996185302734375</ele>
        <time>2026-04-03T01:24:58.000Z</time>
        <extensions>
          <ns3:TrackPointExtension>
            <ns3:atemp>25.0</ns3:atemp>
            <ns3:hr>114</ns3:hr>
          </ns3:TrackPointExtension>
        </extensions>
      </trkpt>
      <trkpt lat="31.1561759747564792633056640625" lon="121.4712735079228878021240234375">
        <ele>10.3999996185302734375</ele>
        <time>2026-04-03T01:25:06.000Z</time>
        <extensions>
          <ns3:TrackPointExtension>
            <ns3:atemp>25.0</ns3:atemp>
            <ns3:hr>115</ns3:hr>
          </ns3:TrackPointExtension>
        </extensions>
      </trkpt>
      <trkpt lat="31.15607782267034053802490234375" lon="121.4713521301746368408203125">
        <ele>10.3999996185302734375</ele>
        <time>2026-04-03T01:25:13.000Z</time>
        <extensions>
          <ns3:TrackPointExtension>
            <ns3:atemp>25.0</ns3:atemp>
            <ns3:hr>118</ns3:hr>
          </ns3:TrackPointExtension>
        </extensions>
      </trkpt>
      <trkpt lat="31.15606558509171009063720703125" lon="121.471362523734569549560546875">
        <ele>10.3999996185302734375</ele>
        <time>2026-04-03T01:25:14.000Z</time>
        <extensions>
          <ns3:TrackPointExtension>
            <ns3:atemp>25.0</ns3:atemp>
            <ns3:hr>119</ns3:hr>
          </ns3:TrackPointExtension>
        </extensions>
      </trkpt>
      <trkpt lat="31.15603272803127765655517578125" lon="121.47139144130051136016845703125">
        <ele>10.3999996185302734375</ele>
        <time>2026-04-03T01:25:17.000Z</time>
        <extensions>
          <ns3:TrackPointExtension>
            <ns3:atemp>25.0</ns3:atemp>
            <ns3:hr>116</ns3:hr>
          </ns3:TrackPointExtension>
        </extensions>
      </trkpt>
      <trkpt lat="31.15597204305231571197509765625" lon="121.47141591645777225494384765625">
        <ele>10.19999980926513671875</ele>
        <time>2026-04-03T01:25:22.000Z</time>
        <extensions>
          <ns3:TrackPointExtension>
            <ns3:atemp>25.0</ns3:atemp>
            <ns3:hr>114</ns3:hr>
          </ns3:TrackPointExtension>
        </extensions>
      </trkpt>
      <trkpt lat="31.15588210523128509521484375" lon="121.47138976491987705230712890625">
        <ele>10</ele>
        <time>2026-04-03T01:25:30.000Z</time>
        <extensions>
          <ns3:TrackPointExtension>
            <ns3:atemp>25.0</ns3:atemp>
            <ns3:hr>113</ns3:hr>
          </ns3:TrackPointExtension>
        </extensions>
      </trkpt>
      <trkpt lat="31.15588839165866374969482421875" lon="121.47142245434224605560302734375">
        <ele>10.19999980926513671875</ele>
        <time>2026-04-03T01:25:35.000Z</time>
        <extensions>
          <ns3:TrackPointExtension>
            <ns3:atemp>25.0</ns3:atemp>
            <ns3:hr>113</ns3:hr>
          </ns3:TrackPointExtension>
        </extensions>
      </trkpt>
      <trkpt lat="31.15586936473846435546875" lon="121.47136696614325046539306640625">
        <ele>10</ele>
        <time>2026-04-03T01:25:41.000Z</time>
        <extensions>
          <ns3:TrackPointExtension>
            <ns3:atemp>25.0</ns3:atemp>
            <ns3:hr>114</ns3:hr>
          </ns3:TrackPointExtension>
        </extensions>
      </trkpt>
      <trkpt lat="31.1558256112039089202880859375" lon="121.4712852425873279571533203125">
        <ele>9.6000003814697265625</ele>
        <time>2026-04-03T01:25:46.000Z</time>
        <extensions>
          <ns3:TrackPointExtension>
            <ns3:atemp>25.0</ns3:atemp>
            <ns3:hr>114</ns3:hr>
          </ns3:TrackPointExtension>
        </extensions>
      </trkpt>
      <trkpt lat="31.15581446327269077301025390625" lon="121.471273005008697509765625">
        <ele>9.6000003814697265625</ele>
        <time>2026-04-03T01:25:47.000Z</time>
        <extensions>
          <ns3:TrackPointExtension>
            <ns3:atemp>25.0</ns3:atemp>
            <ns3:hr>114</ns3:hr>
          </ns3:TrackPointExtension>
        </extensions>
      </trkpt>
      <trkpt lat="31.1557914130389690399169921875" lon="121.47125666029751300811767578125">
        <ele>9.6000003814697265625</ele>
        <time>2026-04-03T01:25:50.000Z</time>
        <extensions>
          <ns3:TrackPointExtension>
            <ns3:atemp>25.0</ns3:atemp>
            <ns3:hr>114</ns3:hr>
          </ns3:TrackPointExtension>
        </extensions>
      </trkpt>
      <trkpt lat="31.1557902395725250244140625" lon="121.47125490009784698486328125">
        <ele>9.6000003814697265625</ele>
        <time>2026-04-03T01:25:52.000Z</time>
        <extensions>
          <ns3:TrackPointExtension>
            <ns3:atemp>25.0</ns3:atemp>
            <ns3:hr>115</ns3:hr>
          </ns3:TrackPointExtension>
        </extensions>
      </trkpt>
      <trkpt lat="31.15579091012477874755859375" lon="121.47125598974525928497314453125">
        <ele>9.6000003814697265625</ele>
        <time>2026-04-03T01:25:58.000Z</time>
        <extensions>
          <ns3:TrackPointExtension>
            <ns3:atemp>25.0</ns3:atemp>
            <ns3:hr>112</ns3:hr>
          </ns3:TrackPointExtension>
        </extensions>
      </trkpt>
      <trkpt lat="31.1557904072105884552001953125" lon="121.471256911754608154296875">
        <ele>9.6000003814697265625</ele>
        <time>2026-04-03T01:26:06.000Z</time>
        <extensions>
          <ns3:TrackPointExtension>
            <ns3:atemp>25.0</ns3:atemp>
            <ns3:hr>115</ns3:hr>
          </ns3:TrackPointExtension>
        </extensions>
      </trkpt>
      <trkpt lat="31.1557904072105884552001953125" lon="121.471256911754608154296875">
        <ele>9.6000003814697265625</ele>
        <time>2026-04-03T01:26:11.000Z</time>
        <extensions>
          <ns3:TrackPointExtension>
            <ns3:atemp>25.0</ns3:atemp>
            <ns3:hr>117</ns3:hr>
          </ns3:TrackPointExtension>
        </extensions>
      </trkpt>
      <trkpt lat="31.15579049102962017059326171875" lon="121.471256911754608154296875">
        <ele>9.6000003814697265625</ele>
        <time>2026-04-03T01:26:15.000Z</time>
        <extensions>
          <ns3:TrackPointExtension>
            <ns3:atemp>25.0</ns3:atemp>
            <ns3:hr>116</ns3:hr>
          </ns3:TrackPointExtension>
        </extensions>
      </trkpt>
      <trkpt lat="31.15579065866768360137939453125" lon="121.47125699557363986968994140625">
        <ele>9.6000003814697265625</ele>
        <time>2026-04-03T01:26:20.000Z</time>
        <extensions>
          <ns3:TrackPointExtension>
            <ns3:atemp>24.0</ns3:atemp>
            <ns3:hr>113</ns3:hr>
          </ns3:TrackPointExtension>
        </extensions>
      </trkpt>
      <trkpt lat="31.15579082630574703216552734375" lon="121.4712570793926715850830078125">
        <ele>9.80000019073486328125</ele>
        <time>2026-04-03T01:26:24.000Z</time>
        <extensions>
          <ns3:TrackPointExtension>
            <ns3:atemp>24.0</ns3:atemp>
            <ns3:hr>110</ns3:hr>
          </ns3:TrackPointExtension>
        </extensions>
      </trkpt>
      <trkpt lat="31.15579082630574703216552734375" lon="121.47125749848783016204833984375">
        <ele>9.80000019073486328125</ele>
        <time>2026-04-03T01:26:33.000Z</time>
        <extensions>
          <ns3:TrackPointExtension>
            <ns3:atemp>24.0</ns3:atemp>
            <ns3:hr>107</ns3:hr>
          </ns3:TrackPointExtension>
        </extensions>
      </trkpt>
      <trkpt lat="31.15579015575349330902099609375" lon="121.471259258687496185302734375">
        <ele>10</ele>
        <time>2026-04-03T01:26:43.000Z</time>
        <extensions>
          <ns3:TrackPointExtension>
            <ns3:atemp>24.0</ns3:atemp>
            <ns3:hr>104</ns3:hr>
          </ns3:TrackPointExtension>
        </extensions>
      </trkpt>
      <trkpt lat="31.15578797645866870880126953125" lon="121.47126168943941593170166015625">
        <ele>10.19999980926513671875</ele>
        <time>2026-04-03T01:26:53.000Z</time>
        <extensions>
          <ns3:TrackPointExtension>
            <ns3:atemp>24.0</ns3:atemp>
            <ns3:hr>101</ns3:hr>
          </ns3:TrackPointExtension>
        </extensions>
      </trkpt>
      <trkpt lat="31.155787892639636993408203125" lon="121.47126269526779651641845703125">
        <ele>10.6000003814697265625</ele>
        <time>2026-04-03T01:27:00.000Z</time>
        <extensions>
          <ns3:TrackPointExtension>
            <ns3:atemp>24.0</ns3:atemp>
            <ns3:hr>98</ns3:hr>
          </ns3:TrackPointExtension>
        </extensions>
      </trkpt>
      <trkpt lat="31.155787892639636993408203125" lon="121.4712627790868282318115234375">
        <ele>11</ele>
        <time>2026-04-03T01:27:09.000Z</time>
        <extensions>
          <ns3:TrackPointExtension>
            <ns3:atemp>24.0</ns3:atemp>
            <ns3:hr>101</ns3:hr>
          </ns3:TrackPointExtension>
        </extensions>
      </trkpt>
      <trkpt lat="31.15576945245265960693359375" lon="121.47121709771454334259033203125">
        <ele>11.19999980926513671875</ele>
        <time>2026-04-03T01:27:11.000Z</time>
        <extensions>
          <ns3:TrackPointExtension>
            <ns3:atemp>24.0</ns3:atemp>
            <ns3:hr>102</ns3:hr>
          </ns3:TrackPointExtension>
        </extensions>
      </trkpt>
      <trkpt lat="31.15576417185366153717041015625" lon="121.4711890183389186859130859375">
        <ele>11.19999980926513671875</ele>
        <time>2026-04-03T01:27:12.000Z</time>
        <extensions>
          <ns3:TrackPointExtension>
            <ns3:atemp>24.0</ns3:atemp>
            <ns3:hr>102</ns3:hr>
          </ns3:TrackPointExtension>
        </extensions>
      </trkpt>
      <trkpt lat="31.15576207637786865234375" lon="121.47113956511020660400390625">
        <ele>11.3999996185302734375</ele>
        <time>2026-04-03T01:27:14.000Z</time>
        <extensions>
          <ns3:TrackPointExtension>
            <ns3:atemp>25.0</ns3:atemp>
            <ns3:hr>101</ns3:hr>
          </ns3:TrackPointExtension>
        </extensions>
      </trkpt>
      <trkpt lat="31.15574170835316181182861328125" lon="121.47100755013525485992431640625">
        <ele>11.6000003814697265625</ele>
        <time>2026-04-03T01:27:21.000Z</time>
        <extensions>
          <ns3:TrackPointExtension>
            <ns3:atemp>24.0</ns3:atemp>
            <ns3:hr>100</ns3:hr>
          </ns3:TrackPointExtension>
        </extensions>
      </trkpt>
      <trkpt lat="31.1557079292833805084228515625" lon="121.4709992520511150360107421875">
        <ele>11.6000003814697265625</ele>
        <time>2026-04-03T01:27:24.000Z</time>
        <extensions>
          <ns3:TrackPointExtension>
            <ns3:atemp>25.0</ns3:atemp>
            <ns3:hr>99</ns3:hr>
          </ns3:TrackPointExtension>
        </extensions>
      </trkpt>
      <trkpt lat="31.15567163564264774322509765625" lon="121.47097058594226837158203125">
        <ele>11.3999996185302734375</ele>
        <time>2026-04-03T01:27:29.000Z</time>
        <extensions>
          <ns3:TrackPointExtension>
            <ns3:atemp>25.0</ns3:atemp>
            <ns3:hr>98</ns3:hr>
          </ns3:TrackPointExtension>
        </extensions>
      </trkpt>
      <trkpt lat="31.15562838502228260040283203125" lon="121.47098290733993053436279296875">
        <ele>11.6000003814697265625</ele>
        <time>2026-04-03T01:27:33.000Z</time>
        <extensions>
          <ns3:TrackPointExtension>
            <ns3:atemp>25.0</ns3:atemp>
            <ns3:hr>97</ns3:hr>
          </ns3:TrackPointExtension>
        </extensions>
      </trkpt>
      <trkpt lat="31.15558438003063201904296875" lon="121.4710280857980251312255859375">
        <ele>11.3999996185302734375</ele>
        <time>2026-04-03T01:27:37.000Z</time>
        <extensions>
          <ns3:TrackPointExtension>
            <ns3:atemp>25.0</ns3:atemp>
            <ns3:hr>99</ns3:hr>
          </ns3:TrackPointExtension>
        </extensions>
      </trkpt>
      <trkpt lat="31.15553970448672771453857421875" lon="121.47104476578533649444580078125">
        <ele>11.3999996185302734375</ele>
        <time>2026-04-03T01:27:41.000Z</time>
        <extensions>
          <ns3:TrackPointExtension>
            <ns3:atemp>24.0</ns3:atemp>
            <ns3:hr>102</ns3:hr>
          </ns3:TrackPointExtension>
        </extensions>
      </trkpt>
      <trkpt lat="31.1555084399878978729248046875" lon="121.47105105221271514892578125">
        <ele>11.3999996185302734375</ele>
        <time>2026-04-03T01:27:44.000Z</time>
        <extensions>
          <ns3:TrackPointExtension>
            <ns3:atemp>25.0</ns3:atemp>
            <ns3:hr>102</ns3:hr>
          </ns3:TrackPointExtension>
        </extensions>
      </trkpt>
      <trkpt lat="31.15546259097754955291748046875" lon="121.4710133336484432220458984375">
        <ele>11.3999996185302734375</ele>
        <time>2026-04-03T01:27:47.000Z</time>
        <extensions>
          <ns3:TrackPointExtension>
            <ns3:atemp>24.0</ns3:atemp>
            <ns3:hr>102</ns3:hr>
          </ns3:TrackPointExtension>
        </extensions>
      </trkpt>
      <trkpt lat="31.1554393731057643890380859375" lon="121.4709184505045413970947265625">
        <ele>11.3999996185302734375</ele>
        <time>2026-04-03T01:27:49.000Z</time>
        <extensions>
          <ns3:TrackPointExtension>
            <ns3:atemp>24.0</ns3:atemp>
            <ns3:hr>103</ns3:hr>
          </ns3:TrackPointExtension>
        </extensions>
      </trkpt>
      <trkpt lat="31.1553986370563507080078125" lon="121.47077805362641811370849609375">
        <ele>11.6000003814697265625</ele>
        <time>2026-04-03T01:27:56.000Z</time>
        <extensions>
          <ns3:TrackPointExtension>
            <ns3:atemp>24.0</ns3:atemp>
            <ns3:hr>104</ns3:hr>
          </ns3:TrackPointExtension>
        </extensions>
      </trkpt>
      <trkpt lat="31.155421435832977294921875" lon="121.4706931449472904205322265625">
        <ele>11.6000003814697265625</ele>
        <time>2026-04-03T01:28:00.000Z</time>
        <extensions>
          <ns3:TrackPointExtension>
            <ns3:atemp>24.0</ns3:atemp>
            <ns3:hr>107</ns3:hr>
          </ns3:TrackPointExtension>
        </extensions>
      </trkpt>
      <trkpt lat="31.15542612969875335693359375" lon="121.47058258764445781707763671875">
        <ele>11.80000019073486328125</ele>
        <time>2026-04-03T01:28:03.000Z</time>
        <extensions>
          <ns3:TrackPointExtension>
            <ns3:atemp>24.0</ns3:atemp>
            <ns3:hr>105</ns3:hr>
          </ns3:TrackPointExtension>
        </extensions>
      </trkpt>
      <trkpt lat="31.15541498176753520965576171875" lon="121.470454595983028411865234375">
        <ele>11.80000019073486328125</ele>
        <time>2026-04-03T01:28:07.000Z</time>
        <extensions>
          <ns3:TrackPointExtension>
            <ns3:atemp>25.0</ns3:atemp>
            <ns3:hr>102</ns3:hr>
          </ns3:TrackPointExtension>
        </extensions>
      </trkpt>
      <trkpt lat="31.1554174125194549560546875" lon="121.4703920669853687286376953125">
        <ele>11.80000019073486328125</ele>
        <time>2026-04-03T01:28:10.000Z</time>
        <extensions>
          <ns3:TrackPointExtension>
            <ns3:atemp>24.0</ns3:atemp>
            <ns3:hr>107</ns3:hr>
          </ns3:TrackPointExtension>
        </extensions>
      </trkpt>
      <trkpt lat="31.15542688407003879547119140625" lon="121.470349989831447601318359375">
        <ele>11.80000019073486328125</ele>
        <time>2026-04-03T01:28:12.000Z</time>
        <extensions>
          <ns3:TrackPointExtension>
            <ns3:atemp>24.0</ns3:atemp>
            <ns3:hr>107</ns3:hr>
          </ns3:TrackPointExtension>
        </extensions>
      </trkpt>
      <trkpt lat="31.15545135922729969024658203125" lon="121.47021462209522724151611328125">
        <ele>12</ele>
        <time>2026-04-03T01:28:18.000Z</time>
        <extensions>
          <ns3:TrackPointExtension>
            <ns3:atemp>24.0</ns3:atemp>
            <ns3:hr>107</ns3:hr>
          </ns3:TrackPointExtension>
        </extensions>
      </trkpt>
      <trkpt lat="31.15543694235384464263916015625" lon="121.470179669559001922607421875">
        <ele>12</ele>
        <time>2026-04-03T01:28:20.000Z</time>
        <extensions>
          <ns3:TrackPointExtension>
            <ns3:atemp>24.0</ns3:atemp>
            <ns3:hr>108</ns3:hr>
          </ns3:TrackPointExtension>
        </extensions>
      </trkpt>
      <trkpt lat="31.155443228781223297119140625" lon="121.47017489187419414520263671875">
        <ele>12</ele>
        <time>2026-04-03T01:28:22.000Z</time>
        <extensions>
          <ns3:TrackPointExtension>
            <ns3:atemp>24.0</ns3:atemp>
            <ns3:hr>112</ns3:hr>
          </ns3:TrackPointExtension>
        </extensions>
      </trkpt>
      <trkpt lat="31.15544331260025501251220703125" lon="121.47017220966517925262451171875">
        <ele>12</ele>
        <time>2026-04-03T01:28:25.000Z</time>
        <extensions>
          <ns3:TrackPointExtension>
            <ns3:atemp>24.0</ns3:atemp>
            <ns3:hr>109</ns3:hr>
          </ns3:TrackPointExtension>
        </extensions>
      </trkpt>
      <trkpt lat="31.1554454080760478973388671875" lon="121.47016969509422779083251953125">
        <ele>12</ele>
        <time>2026-04-03T01:28:26.000Z</time>
        <extensions>
          <ns3:TrackPointExtension>
            <ns3:atemp>24.0</ns3:atemp>
            <ns3:hr>109</ns3:hr>
          </ns3:TrackPointExtension>
        </extensions>
      </trkpt>
    </trkseg>
  </trk>
</gpx>
