<gpx xmlns:ns3="http://www.garmin.com/xmlschemas/TrackPointExtension/v1" xmlns="http://www.topografix.com/GPX/1/1" xmlns:xsi="http://www.w3.org/2001/XMLSchema-instance" xmlns:ns2="http://www.garmin.com/xmlschemas/GpxExtensions/v3" creator="Garmin Connect" version="1.1" xsi:schemaLocation="http://www.topografix.com/GPX/1/1 http://www.topografix.com/GPX/11.xsd">
  <extensions>
<distance>531.1</distance>
<average_hr>120.0</average_hr>
<average_speed>0.10100000351667404</average_speed>
<start_time>2026-04-28T08:34:50+00:00</start_time>
<end_time>2026-04-28T10:02:06.086000+00:00</end_time>
<moving_time>406.0</moving_time>
<elapsed_time>5236.086</elapsed_time>
</extensions>
<metadata>
    <link href="connect.garmin.com">
      <text>Garmin Connect</text>
    </link>
    <time>2026-04-28T08:34:50.000Z</time>
  </metadata>
  <trk>
    <name>网球</name>
    <type>tennis_v2</type>
    <trkseg/>
  </trk>
</gpx>
