<gpx xmlns:ns3="http://www.garmin.com/xmlschemas/TrackPointExtension/v1" xmlns="http://www.topografix.com/GPX/1/1" xmlns:xsi="http://www.w3.org/2001/XMLSchema-instance" xmlns:ns2="http://www.garmin.com/xmlschemas/GpxExtensions/v3" creator="Garmin Connect" version="1.1" xsi:schemaLocation="http://www.topografix.com/GPX/1/1 http://www.topografix.com/GPX/11.xsd">
  <extensions>
<distance>195.21</distance>
<average_hr>85.0</average_hr>
<average_speed>0.1070000007748604</average_speed>
<start_time>2026-06-14T14:47:10+00:00</start_time>
<end_time>2026-06-14T15:17:32.802000+00:00</end_time>
<moving_time>179.0</moving_time>
<elapsed_time>1822.802</elapsed_time>
</extensions>
<metadata>
    <link href="connect.garmin.com">
      <text>Garmin Connect</text>
    </link>
    <time>2026-06-14T14:47:10.000Z</time>
  </metadata>
  <trk>
    <name>室内活动</name>
    <type>indoor_running</type>
    <trkseg/>
  </trk>
</gpx>
